{
 "type": "FeatureCollection",
 "route_id": "irbid_malka",
 "name_ar": "إربد ↔ ملكا",
 "name_en": "Irbid <-> Malka",
 "features": [
  {
   "type": "Feature",
   "properties": {
    "kind": "corridor",
    "route_id": "irbid_malka",
    "total_km": 20.95,
    "source": "OpenStreetMap via OSRM (provisional, field-check before public use)"
   },
   "geometry": {
    "type": "LineString",
    "coordinates": [
     [
      35.849316,
      32.555706
     ],
     [
      35.849528,
      32.555684
     ],
     [
      35.849388,
      32.555968
     ],
     [
      35.84937,
      32.55604
     ],
     [
      35.849364,
      32.55608
     ],
     [
      35.849366,
      32.556127
     ],
     [
      35.849382,
      32.556201
     ],
     [
      35.849402,
      32.556256
     ],
     [
      35.849514,
      32.556686
     ],
     [
      35.849549,
      32.556769
     ],
     [
      35.849499,
      32.556763
     ],
     [
      35.848303,
      32.55671
     ],
     [
      35.847813,
      32.556689
     ],
     [
      35.847557,
      32.556686
     ],
     [
      35.847379,
      32.556691
     ],
     [
      35.847292,
      32.556704
     ],
     [
      35.847183,
      32.556734
     ],
     [
      35.847013,
      32.55679
     ],
     [
      35.846888,
      32.556841
     ],
     [
      35.846752,
      32.556909
     ],
     [
      35.846742,
      32.556936
     ],
     [
      35.846721,
      32.556958
     ],
     [
      35.846692,
      32.556973
     ],
     [
      35.846631,
      32.557031
     ],
     [
      35.846566,
      32.557075
     ],
     [
      35.846153,
      32.557256
     ],
     [
      35.845992,
      32.5574
     ],
     [
      35.845855,
      32.557533
     ],
     [
      35.84582,
      32.55756
     ],
     [
      35.845812,
      32.557587
     ],
     [
      35.845793,
      32.557611
     ],
     [
      35.845722,
      32.557765
     ],
     [
      35.845692,
      32.557829
     ],
     [
      35.845668,
      32.557904
     ],
     [
      35.845652,
      32.557978
     ],
     [
      35.845646,
      32.55806
     ],
     [
      35.845659,
      32.55866
     ],
     [
      35.845662,
      32.558707
     ],
     [
      35.845691,
      32.55898
     ],
     [
      35.845698,
      32.559041
     ],
     [
      35.84569,
      32.559087
     ],
     [
      35.84566,
      32.559118
     ],
     [
      35.845609,
      32.559157
     ],
     [
      35.845568,
      32.559172
     ],
     [
      35.845511,
      32.55918
     ],
     [
      35.84546,
      32.559179
     ],
     [
      35.844992,
      32.55912
     ],
     [
      35.844831,
      32.559107
     ],
     [
      35.844553,
      32.559499
     ],
     [
      35.844372,
      32.559823
     ],
     [
      35.844249,
      32.56002
     ],
     [
      35.84397,
      32.560575
     ],
     [
      35.843895,
      32.560738
     ],
     [
      35.843654,
      32.561265
     ],
     [
      35.843522,
      32.561603
     ],
     [
      35.843475,
      32.561832
     ],
     [
      35.843337,
      32.562476
     ],
     [
      35.843036,
      32.56425
     ],
     [
      35.84301,
      32.564442
     ],
     [
      35.842989,
      32.564593
     ],
     [
      35.842982,
      32.564714
     ],
     [
      35.842983,
      32.56484
     ],
     [
      35.843025,
      32.564848
     ],
     [
      35.843059,
      32.56487
     ],
     [
      35.843077,
      32.564893
     ],
     [
      35.843086,
      32.56492
     ],
     [
      35.843084,
      32.564947
     ],
     [
      35.843073,
      32.564973
     ],
     [
      35.843053,
      32.564994
     ],
     [
      35.843026,
      32.56501
     ],
     [
      35.842998,
      32.565018
     ],
     [
      35.842963,
      32.565016
     ],
     [
      35.842893,
      32.565251
     ],
     [
      35.842851,
      32.565469
     ],
     [
      35.842831,
      32.565653
     ],
     [
      35.842779,
      32.565999
     ],
     [
      35.842682,
      32.566696
     ],
     [
      35.842533,
      32.567752
     ],
     [
      35.842476,
      32.568237
     ],
     [
      35.842447,
      32.568491
     ],
     [
      35.84244,
      32.56857
     ],
     [
      35.842447,
      32.568649
     ],
     [
      35.842466,
      32.568726
     ],
     [
      35.842495,
      32.568804
     ],
     [
      35.842538,
      32.568842
     ],
     [
      35.842634,
      32.568986
     ],
     [
      35.842649,
      32.569061
     ],
     [
      35.842636,
      32.569136
     ],
     [
      35.842598,
      32.569204
     ],
     [
      35.842537,
      32.56926
     ],
     [
      35.842468,
      32.569289
     ],
     [
      35.8424,
      32.569328
     ],
     [
      35.842341,
      32.569376
     ],
     [
      35.842292,
      32.56943
     ],
     [
      35.842254,
      32.569491
     ],
     [
      35.842229,
      32.569556
     ],
     [
      35.842175,
      32.56973
     ],
     [
      35.842139,
      32.569864
     ],
     [
      35.841899,
      32.570693
     ],
     [
      35.841627,
      32.571654
     ],
     [
      35.841339,
      32.572739
     ],
     [
      35.84116,
      32.573434
     ],
     [
      35.841074,
      32.57374
     ],
     [
      35.84106,
      32.573827
     ],
     [
      35.84105,
      32.573917
     ],
     [
      35.841043,
      32.574042
     ],
     [
      35.84108,
      32.574191
     ],
     [
      35.841126,
      32.574277
     ],
     [
      35.841177,
      32.574362
     ],
     [
      35.84119,
      32.574452
     ],
     [
      35.841169,
      32.57454
     ],
     [
      35.841118,
      32.574593
     ],
     [
      35.841062,
      32.574661
     ],
     [
      35.840925,
      32.574792
     ],
     [
      35.840891,
      32.574853
     ],
     [
      35.840865,
      32.574907
     ],
     [
      35.840826,
      32.575005
     ],
     [
      35.840778,
      32.575186
     ],
     [
      35.84057,
      32.576067
     ],
     [
      35.840514,
      32.576263
     ],
     [
      35.840472,
      32.576399
     ],
     [
      35.840405,
      32.576597
     ],
     [
      35.840322,
      32.576792
     ],
     [
      35.840198,
      32.577067
     ],
     [
      35.840138,
      32.577181
     ],
     [
      35.839881,
      32.577627
     ],
     [
      35.839812,
      32.577787
     ],
     [
      35.839738,
      32.577956
     ],
     [
      35.839707,
      32.577995
     ],
     [
      35.839665,
      32.578028
     ],
     [
      35.839576,
      32.578086
     ],
     [
      35.839413,
      32.578181
     ],
     [
      35.839408,
      32.578205
     ],
     [
      35.839393,
      32.578227
     ],
     [
      35.839371,
      32.578244
     ],
     [
      35.839344,
      32.578253
     ],
     [
      35.839314,
      32.578255
     ],
     [
      35.839183,
      32.57836
     ],
     [
      35.838722,
      32.578681
     ],
     [
      35.838504,
      32.57883
     ],
     [
      35.838348,
      32.578953
     ],
     [
      35.838233,
      32.579042
     ],
     [
      35.838148,
      32.579128
     ],
     [
      35.838014,
      32.579284
     ],
     [
      35.83771,
      32.579642
     ],
     [
      35.837594,
      32.579808
     ],
     [
      35.837278,
      32.580264
     ],
     [
      35.837116,
      32.580485
     ],
     [
      35.836815,
      32.580867
     ],
     [
      35.836368,
      32.581442
     ],
     [
      35.836359,
      32.581466
     ],
     [
      35.836341,
      32.581487
     ],
     [
      35.836317,
      32.581501
     ],
     [
      35.836162,
      32.581738
     ],
     [
      35.835894,
      32.582082
     ],
     [
      35.835776,
      32.582198
     ],
     [
      35.835652,
      32.58228
     ],
     [
      35.835392,
      32.582414
     ],
     [
      35.835357,
      32.582425
     ],
     [
      35.83532,
      32.582427
     ],
     [
      35.834831,
      32.582666
     ],
     [
      35.834153,
      32.582996
     ],
     [
      35.83409,
      32.583027
     ],
     [
      35.834064,
      32.58304
     ],
     [
      35.834072,
      32.583075
     ],
     [
      35.834066,
      32.58311
     ],
     [
      35.834042,
      32.58315
     ],
     [
      35.834023,
      32.583161
     ],
     [
      35.833995,
      32.583174
     ],
     [
      35.833964,
      32.583181
     ],
     [
      35.833931,
      32.583181
     ],
     [
      35.8339,
      32.583174
     ],
     [
      35.833785,
      32.58321
     ],
     [
      35.83369,
      32.583238
     ],
     [
      35.833611,
      32.583274
     ],
     [
      35.832396,
      32.583932
     ],
     [
      35.832252,
      32.583995
     ],
     [
      35.832252,
      32.584015
     ],
     [
      35.832241,
      32.584041
     ],
     [
      35.83222,
      32.584062
     ],
     [
      35.832191,
      32.584074
     ],
     [
      35.832176,
      32.584077
     ],
     [
      35.83162,
      32.584459
     ],
     [
      35.830869,
      32.58499
     ],
     [
      35.830192,
      32.585456
     ],
     [
      35.830196,
      32.585473
     ],
     [
      35.830196,
      32.58549
     ],
     [
      35.830191,
      32.585506
     ],
     [
      35.830181,
      32.585521
     ],
     [
      35.830168,
      32.585534
     ],
     [
      35.830151,
      32.585543
     ],
     [
      35.830126,
      32.58555
     ],
     [
      35.830099,
      32.58555
     ],
     [
      35.830074,
      32.585543
     ],
     [
      35.82938,
      32.58601
     ],
     [
      35.828673,
      32.586501
     ],
     [
      35.828452,
      32.586664
     ],
     [
      35.828246,
      32.586787
     ],
     [
      35.828237,
      32.586804
     ],
     [
      35.828222,
      32.586819
     ],
     [
      35.828204,
      32.58683
     ],
     [
      35.827975,
      32.587017
     ],
     [
      35.827574,
      32.587302
     ],
     [
      35.82705,
      32.587685
     ],
     [
      35.826771,
      32.587899
     ],
     [
      35.826238,
      32.588392
     ],
     [
      35.826172,
      32.588455
     ],
     [
      35.82611,
      32.588504
     ],
     [
      35.825977,
      32.588596
     ],
     [
      35.825349,
      32.589212
     ],
     [
      35.824646,
      32.589968
     ],
     [
      35.824238,
      32.590404
     ],
     [
      35.823977,
      32.590694
     ],
     [
      35.823602,
      32.591128
     ],
     [
      35.823238,
      32.591557
     ],
     [
      35.823136,
      32.591688
     ],
     [
      35.822755,
      32.592173
     ],
     [
      35.822381,
      32.592588
     ],
     [
      35.822084,
      32.592868
     ],
     [
      35.821919,
      32.593007
     ],
     [
      35.821803,
      32.593125
     ],
     [
      35.821741,
      32.5932
     ],
     [
      35.821678,
      32.593309
     ],
     [
      35.821517,
      32.593584
     ],
     [
      35.821192,
      32.594127
     ],
     [
      35.820419,
      32.59536
     ],
     [
      35.820325,
      32.595484
     ],
     [
      35.820172,
      32.595674
     ],
     [
      35.820038,
      32.595813
     ],
     [
      35.819836,
      32.596024
     ],
     [
      35.819483,
      32.596359
     ],
     [
      35.819201,
      32.596627
     ],
     [
      35.818772,
      32.597021
     ],
     [
      35.81858,
      32.597193
     ],
     [
      35.818313,
      32.59741
     ],
     [
      35.818096,
      32.597567
     ],
     [
      35.817935,
      32.597679
     ],
     [
      35.81784,
      32.597734
     ],
     [
      35.817728,
      32.597802
     ],
     [
      35.817635,
      32.597847
     ],
     [
      35.817512,
      32.597906
     ],
     [
      35.817287,
      32.598011
     ],
     [
      35.816694,
      32.598273
     ],
     [
      35.816405,
      32.598404
     ],
     [
      35.816102,
      32.598537
     ],
     [
      35.815715,
      32.598711
     ],
     [
      35.815187,
      32.598962
     ],
     [
      35.814586,
      32.599261
     ],
     [
      35.8142,
      32.599441
     ],
     [
      35.813626,
      32.599716
     ],
     [
      35.813433,
      32.599812
     ],
     [
      35.813213,
      32.599919
     ],
     [
      35.813029,
      32.600018
     ],
     [
      35.812756,
      32.600169
     ],
     [
      35.812568,
      32.60027
     ],
     [
      35.812265,
      32.600452
     ],
     [
      35.812141,
      32.600521
     ],
     [
      35.812002,
      32.600607
     ],
     [
      35.811829,
      32.600704
     ],
     [
      35.811608,
      32.600849
     ],
     [
      35.811439,
      32.600962
     ],
     [
      35.8113,
      32.601065
     ],
     [
      35.811158,
      32.60118
     ],
     [
      35.811038,
      32.601284
     ],
     [
      35.810725,
      32.601579
     ],
     [
      35.810434,
      32.601904
     ],
     [
      35.810211,
      32.602146
     ],
     [
      35.809859,
      32.602537
     ],
     [
      35.809746,
      32.602655
     ],
     [
      35.809613,
      32.602759
     ],
     [
      35.80953,
      32.602801
     ],
     [
      35.809424,
      32.602836
     ],
     [
      35.80934,
      32.602861
     ],
     [
      35.80919,
      32.602885
     ],
     [
      35.808957,
      32.602902
     ],
     [
      35.808673,
      32.602897
     ],
     [
      35.808377,
      32.602885
     ],
     [
      35.808288,
      32.602876
     ],
     [
      35.808209,
      32.602862
     ],
     [
      35.808127,
      32.602842
     ],
     [
      35.80805,
      32.602814
     ],
     [
      35.807748,
      32.602668
     ],
     [
      35.807513,
      32.602541
     ],
     [
      35.807383,
      32.602474
     ],
     [
      35.807213,
      32.602399
     ],
     [
      35.807063,
      32.602344
     ],
     [
      35.806759,
      32.602243
     ],
     [
      35.806506,
      32.602165
     ],
     [
      35.805642,
      32.601897
     ],
     [
      35.805359,
      32.601847
     ],
     [
      35.805219,
      32.601839
     ],
     [
      35.805016,
      32.60184
     ],
     [
      35.80484,
      32.601852
     ],
     [
      35.804603,
      32.601879
     ],
     [
      35.80399,
      32.601995
     ],
     [
      35.803604,
      32.602093
     ],
     [
      35.803093,
      32.602222
     ],
     [
      35.802519,
      32.602385
     ],
     [
      35.802364,
      32.602429
     ],
     [
      35.802142,
      32.602505
     ],
     [
      35.80196,
      32.602568
     ],
     [
      35.801539,
      32.602802
     ],
     [
      35.800712,
      32.60333
     ],
     [
      35.800281,
      32.603597
     ],
     [
      35.800197,
      32.603645
     ],
     [
      35.800094,
      32.603702
     ],
     [
      35.799986,
      32.603755
     ],
     [
      35.799845,
      32.603816
     ],
     [
      35.799717,
      32.603867
     ],
     [
      35.799268,
      32.604034
     ],
     [
      35.799055,
      32.604112
     ],
     [
      35.798787,
      32.604207
     ],
     [
      35.797814,
      32.604563
     ],
     [
      35.797019,
      32.604837
     ],
     [
      35.796917,
      32.604872
     ],
     [
      35.796814,
      32.604901
     ],
     [
      35.796704,
      32.604924
     ],
     [
      35.796609,
      32.604938
     ],
     [
      35.796538,
      32.604944
     ],
     [
      35.796412,
      32.60495
     ],
     [
      35.796281,
      32.604952
     ],
     [
      35.795304,
      32.604942
     ],
     [
      35.794923,
      32.604936
     ],
     [
      35.794657,
      32.604942
     ],
     [
      35.794373,
      32.604949
     ],
     [
      35.794042,
      32.604943
     ],
     [
      35.793784,
      32.604952
     ],
     [
      35.793492,
      32.604971
     ],
     [
      35.793228,
      32.604987
     ],
     [
      35.792899,
      32.605014
     ],
     [
      35.792203,
      32.605058
     ],
     [
      35.791955,
      32.60508
     ],
     [
      35.791711,
      32.605087
     ],
     [
      35.79144,
      32.605089
     ],
     [
      35.791335,
      32.605094
     ],
     [
      35.791215,
      32.605089
     ],
     [
      35.791058,
      32.605086
     ],
     [
      35.790908,
      32.60508
     ],
     [
      35.790748,
      32.605065
     ],
     [
      35.790511,
      32.605038
     ],
     [
      35.790068,
      32.604982
     ],
     [
      35.789945,
      32.604961
     ],
     [
      35.789548,
      32.604906
     ],
     [
      35.789172,
      32.604847
     ],
     [
      35.788708,
      32.604753
     ],
     [
      35.788372,
      32.604683
     ],
     [
      35.78799,
      32.604603
     ],
     [
      35.787778,
      32.604605
     ],
     [
      35.787318,
      32.604499
     ],
     [
      35.786907,
      32.604417
     ],
     [
      35.786253,
      32.604287
     ],
     [
      35.786215,
      32.604291
     ],
     [
      35.786177,
      32.604287
     ],
     [
      35.78574,
      32.604309
     ],
     [
      35.785625,
      32.604307
     ],
     [
      35.785263,
      32.604298
     ],
     [
      35.784922,
      32.604229
     ],
     [
      35.784703,
      32.60423
     ],
     [
      35.784574,
      32.604235
     ],
     [
      35.78446,
      32.604232
     ],
     [
      35.784372,
      32.604235
     ],
     [
      35.784245,
      32.604245
     ],
     [
      35.784082,
      32.604251
     ],
     [
      35.783916,
      32.604254
     ],
     [
      35.783794,
      32.604264
     ],
     [
      35.783641,
      32.604273
     ],
     [
      35.783506,
      32.604296
     ],
     [
      35.783399,
      32.604324
     ],
     [
      35.783287,
      32.604372
     ],
     [
      35.782886,
      32.604553
     ],
     [
      35.781912,
      32.604953
     ],
     [
      35.781105,
      32.605283
     ],
     [
      35.780915,
      32.60536
     ],
     [
      35.780204,
      32.605638
     ],
     [
      35.779641,
      32.605853
     ],
     [
      35.779005,
      32.606089
     ],
     [
      35.778403,
      32.606311
     ],
     [
      35.777471,
      32.60665
     ],
     [
      35.776644,
      32.606956
     ],
     [
      35.775811,
      32.607259
     ],
     [
      35.775384,
      32.607409
     ],
     [
      35.77499,
      32.607562
     ],
     [
      35.77457,
      32.607726
     ],
     [
      35.773944,
      32.608015
     ],
     [
      35.773594,
      32.608185
     ],
     [
      35.773102,
      32.608431
     ],
     [
      35.772659,
      32.608624
     ],
     [
      35.772446,
      32.608729
     ],
     [
      35.772179,
      32.60888
     ],
     [
      35.771798,
      32.609102
     ],
     [
      35.771593,
      32.609238
     ],
     [
      35.771424,
      32.609353
     ],
     [
      35.770796,
      32.609826
     ],
     [
      35.770483,
      32.610074
     ],
     [
      35.770334,
      32.610193
     ],
     [
      35.770066,
      32.610395
     ],
     [
      35.769742,
      32.610662
     ],
     [
      35.769607,
      32.61078
     ],
     [
      35.769528,
      32.610847
     ],
     [
      35.769111,
      32.611306
     ],
     [
      35.768916,
      32.611526
     ],
     [
      35.768714,
      32.611769
     ],
     [
      35.767931,
      32.612646
     ],
     [
      35.767608,
      32.613017
     ],
     [
      35.767406,
      32.613436
     ],
     [
      35.767234,
      32.613856
     ],
     [
      35.767128,
      32.614146
     ],
     [
      35.76708,
      32.614276
     ],
     [
      35.766751,
      32.614292
     ],
     [
      35.766451,
      32.614387
     ],
     [
      35.765159,
      32.614685
     ],
     [
      35.764901,
      32.614811
     ],
     [
      35.764332,
      32.61515
     ],
     [
      35.763937,
      32.615415
     ],
     [
      35.763859,
      32.615467
     ],
     [
      35.763188,
      32.615863
     ],
     [
      35.763141,
      32.615877
     ],
     [
      35.763048,
      32.615873
     ],
     [
      35.762971,
      32.615816
     ],
     [
      35.762889,
      32.61571
     ],
     [
      35.762742,
      32.615415
     ],
     [
      35.762676,
      32.615297
     ],
     [
      35.762621,
      32.615247
     ],
     [
      35.762537,
      32.6152
     ],
     [
      35.762486,
      32.615182
     ],
     [
      35.762424,
      32.615175
     ],
     [
      35.76235,
      32.615182
     ],
     [
      35.762259,
      32.615205
     ],
     [
      35.762001,
      32.615308
     ],
     [
      35.761709,
      32.615438
     ],
     [
      35.761462,
      32.615572
     ],
     [
      35.761206,
      32.615718
     ],
     [
      35.760903,
      32.6159
     ],
     [
      35.760805,
      32.615975
     ],
     [
      35.76071,
      32.616058
     ],
     [
      35.760572,
      32.616225
     ],
     [
      35.76041,
      32.616432
     ],
     [
      35.760135,
      32.616811
     ],
     [
      35.75983,
      32.617171
     ],
     [
      35.75937,
      32.61784
     ],
     [
      35.759284,
      32.617997
     ],
     [
      35.759248,
      32.618079
     ],
     [
      35.759221,
      32.618207
     ],
     [
      35.759195,
      32.618372
     ],
     [
      35.759178,
      32.618604
     ],
     [
      35.759142,
      32.618721
     ],
     [
      35.75907,
      32.618855
     ],
     [
      35.758959,
      32.619028
     ],
     [
      35.75885,
      32.619163
     ],
     [
      35.758658,
      32.619389
     ],
     [
      35.758583,
      32.619507
     ],
     [
      35.758522,
      32.619638
     ],
     [
      35.758489,
      32.619775
     ],
     [
      35.758492,
      32.619935
     ],
     [
      35.758517,
      32.62006
     ],
     [
      35.758537,
      32.620173
     ],
     [
      35.758572,
      32.620284
     ],
     [
      35.758705,
      32.620512
     ],
     [
      35.758967,
      32.620887
     ],
     [
      35.759276,
      32.621249
     ],
     [
      35.759428,
      32.621432
     ],
     [
      35.759464,
      32.621493
     ],
     [
      35.759494,
      32.621575
     ],
     [
      35.7595,
      32.62168
     ],
     [
      35.759476,
      32.621767
     ],
     [
      35.759406,
      32.621852
     ],
     [
      35.759339,
      32.621905
     ],
     [
      35.75929,
      32.621927
     ],
     [
      35.759219,
      32.621947
     ],
     [
      35.759134,
      32.621951
     ],
     [
      35.759063,
      32.621948
     ],
     [
      35.758992,
      32.621932
     ],
     [
      35.758828,
      32.621877
     ],
     [
      35.758075,
      32.621585
     ],
     [
      35.757039,
      32.621196
     ],
     [
      35.756486,
      32.621034
     ],
     [
      35.756229,
      32.620957
     ],
     [
      35.756094,
      32.620941
     ],
     [
      35.755948,
      32.620944
     ],
     [
      35.755807,
      32.620973
     ],
     [
      35.755619,
      32.621103
     ],
     [
      35.755343,
      32.621418
     ],
     [
      35.755101,
      32.621659
     ],
     [
      35.754916,
      32.621836
     ],
     [
      35.754782,
      32.621941
     ],
     [
      35.754633,
      32.622045
     ],
     [
      35.754424,
      32.622153
     ],
     [
      35.754089,
      32.622302
     ],
     [
      35.753679,
      32.622471
     ],
     [
      35.753459,
      32.622577
     ],
     [
      35.753274,
      32.622699
     ],
     [
      35.753015,
      32.622941
     ],
     [
      35.752803,
      32.623179
     ],
     [
      35.752712,
      32.623308
     ],
     [
      35.752675,
      32.623385
     ],
     [
      35.752637,
      32.623464
     ],
     [
      35.752594,
      32.623589
     ],
     [
      35.752567,
      32.623729
     ],
     [
      35.752555,
      32.623882
     ],
     [
      35.752559,
      32.623999
     ],
     [
      35.752592,
      32.624101
     ],
     [
      35.752623,
      32.624188
     ],
     [
      35.752692,
      32.624323
     ],
     [
      35.75282,
      32.624486
     ],
     [
      35.753068,
      32.624763
     ],
     [
      35.75327,
      32.624967
     ],
     [
      35.753665,
      32.625325
     ],
     [
      35.75407,
      32.625663
     ],
     [
      35.754181,
      32.625757
     ],
     [
      35.754259,
      32.625844
     ],
     [
      35.754304,
      32.625924
     ],
     [
      35.754305,
      32.626013
     ],
     [
      35.754283,
      32.626098
     ],
     [
      35.754254,
      32.626144
     ],
     [
      35.754195,
      32.626195
     ],
     [
      35.754058,
      32.626257
     ],
     [
      35.753945,
      32.626287
     ],
     [
      35.753746,
      32.626321
     ],
     [
      35.753455,
      32.626361
     ],
     [
      35.753213,
      32.626366
     ],
     [
      35.753097,
      32.626363
     ],
     [
      35.752986,
      32.626357
     ],
     [
      35.752868,
      32.626338
     ],
     [
      35.752708,
      32.626318
     ],
     [
      35.752592,
      32.626305
     ],
     [
      35.75243,
      32.626295
     ],
     [
      35.752248,
      32.626299
     ],
     [
      35.752034,
      32.626329
     ],
     [
      35.751904,
      32.626354
     ],
     [
      35.751731,
      32.62637
     ],
     [
      35.751571,
      32.626367
     ],
     [
      35.751456,
      32.626335
     ],
     [
      35.75135,
      32.626286
     ],
     [
      35.75128,
      32.62632
     ],
     [
      35.751288,
      32.626399
     ],
     [
      35.751303,
      32.626472
     ],
     [
      35.75132,
      32.626528
     ],
     [
      35.751338,
      32.626583
     ],
     [
      35.751358,
      32.626628
     ],
     [
      35.751376,
      32.626662
     ],
     [
      35.751398,
      32.626695
     ],
     [
      35.751416,
      32.62673
     ],
     [
      35.751426,
      32.626754
     ],
     [
      35.751432,
      32.62678
     ],
     [
      35.751433,
      32.626815
     ],
     [
      35.751434,
      32.626859
     ],
     [
      35.75144,
      32.626921
     ],
     [
      35.751469,
      32.626979
     ],
     [
      35.751499,
      32.627031
     ],
     [
      35.751522,
      32.627086
     ],
     [
      35.751543,
      32.627155
     ],
     [
      35.751568,
      32.627285
     ],
     [
      35.75159,
      32.627409
     ],
     [
      35.751738,
      32.627503
     ],
     [
      35.751911,
      32.627599
     ],
     [
      35.751957,
      32.628077
     ],
     [
      35.752098,
      32.628803
     ],
     [
      35.752193,
      32.628816
     ],
     [
      35.752284,
      32.62885
     ],
     [
      35.752399,
      32.628925
     ],
     [
      35.752464,
      32.628981
     ],
     [
      35.752689,
      32.629184
     ],
     [
      35.752765,
      32.629255
     ],
     [
      35.7528,
      32.629302
     ],
     [
      35.752783,
      32.629331
     ],
     [
      35.752753,
      32.629353
     ],
     [
      35.752645,
      32.62941
     ],
     [
      35.752496,
      32.629475
     ],
     [
      35.752304,
      32.629541
     ],
     [
      35.752131,
      32.629599
     ],
     [
      35.751938,
      32.629659
     ],
     [
      35.751782,
      32.629701
     ],
     [
      35.751588,
      32.629767
     ],
     [
      35.751401,
      32.629853
     ],
     [
      35.75126,
      32.629941
     ],
     [
      35.751097,
      32.630048
     ],
     [
      35.750846,
      32.630212
     ],
     [
      35.750357,
      32.630505
     ],
     [
      35.750048,
      32.630658
     ],
     [
      35.749535,
      32.630897
     ],
     [
      35.749293,
      32.631022
     ],
     [
      35.749147,
      32.631109
     ],
     [
      35.749041,
      32.63118
     ],
     [
      35.748963,
      32.631241
     ],
     [
      35.748765,
      32.631425
     ],
     [
      35.74856,
      32.631655
     ],
     [
      35.748307,
      32.631923
     ],
     [
      35.748036,
      32.632175
     ],
     [
      35.74786,
      32.632337
     ],
     [
      35.747665,
      32.63257
     ],
     [
      35.747577,
      32.632694
     ],
     [
      35.747543,
      32.632753
     ],
     [
      35.747514,
      32.63282
     ],
     [
      35.747501,
      32.632907
     ],
     [
      35.747511,
      32.63306
     ],
     [
      35.747526,
      32.633136
     ],
     [
      35.747554,
      32.633208
     ],
     [
      35.747632,
      32.633326
     ],
     [
      35.747694,
      32.633391
     ],
     [
      35.747792,
      32.633481
     ],
     [
      35.748041,
      32.633648
     ],
     [
      35.748623,
      32.634018
     ],
     [
      35.748951,
      32.634254
     ],
     [
      35.749329,
      32.634528
     ],
     [
      35.749396,
      32.634574
     ],
     [
      35.749466,
      32.634612
     ],
     [
      35.749539,
      32.63464
     ],
     [
      35.749638,
      32.634662
     ],
     [
      35.749769,
      32.634677
     ],
     [
      35.749887,
      32.634693
     ],
     [
      35.749981,
      32.634702
     ],
     [
      35.750096,
      32.634704
     ],
     [
      35.750229,
      32.634701
     ],
     [
      35.750481,
      32.634652
     ],
     [
      35.750579,
      32.63465
     ],
     [
      35.750695,
      32.634655
     ],
     [
      35.75079,
      32.634684
     ],
     [
      35.750852,
      32.634712
     ],
     [
      35.750896,
      32.634738
     ],
     [
      35.750955,
      32.634783
     ],
     [
      35.751022,
      32.634848
     ],
     [
      35.751092,
      32.634917
     ],
     [
      35.751168,
      32.63499
     ],
     [
      35.751244,
      32.635068
     ],
     [
      35.75131,
      32.635145
     ],
     [
      35.751381,
      32.635234
     ],
     [
      35.751491,
      32.635361
     ],
     [
      35.751541,
      32.635411
     ],
     [
      35.751579,
      32.635446
     ],
     [
      35.751661,
      32.635502
     ],
     [
      35.75173,
      32.635548
     ],
     [
      35.75178,
      32.635574
     ],
     [
      35.751817,
      32.635589
     ],
     [
      35.751892,
      32.635624
     ],
     [
      35.751989,
      32.635683
     ],
     [
      35.752071,
      32.635745
     ],
     [
      35.752098,
      32.635769
     ],
     [
      35.75213,
      32.635797
     ],
     [
      35.752168,
      32.635836
     ],
     [
      35.752225,
      32.635938
     ],
     [
      35.75227,
      32.636023
     ],
     [
      35.752308,
      32.636109
     ],
     [
      35.752338,
      32.636191
     ],
     [
      35.752368,
      32.636279
     ],
     [
      35.752389,
      32.636388
     ],
     [
      35.752378,
      32.636553
     ],
     [
      35.752351,
      32.636728
     ],
     [
      35.752344,
      32.636881
     ],
     [
      35.752353,
      32.636948
     ],
     [
      35.752382,
      32.637043
     ],
     [
      35.752433,
      32.63717
     ],
     [
      35.752459,
      32.637253
     ],
     [
      35.752483,
      32.637331
     ],
     [
      35.752513,
      32.637436
     ],
     [
      35.752551,
      32.637553
     ],
     [
      35.752621,
      32.637729
     ],
     [
      35.752702,
      32.63786
     ],
     [
      35.752812,
      32.638027
     ],
     [
      35.752921,
      32.638187
     ],
     [
      35.753031,
      32.638408
     ],
     [
      35.753111,
      32.638562
     ],
     [
      35.753192,
      32.638696
     ],
     [
      35.753325,
      32.638899
     ],
     [
      35.753439,
      32.639072
     ],
     [
      35.753502,
      32.639203
     ],
     [
      35.753537,
      32.639317
     ],
     [
      35.75355,
      32.639429
     ],
     [
      35.753548,
      32.639531
     ],
     [
      35.75353,
      32.639648
     ],
     [
      35.753512,
      32.639772
     ],
     [
      35.753491,
      32.639932
     ],
     [
      35.753484,
      32.640006
     ],
     [
      35.753477,
      32.64011
     ],
     [
      35.753475,
      32.640219
     ],
     [
      35.753485,
      32.640306
     ],
     [
      35.753496,
      32.640365
     ],
     [
      35.753508,
      32.640421
     ],
     [
      35.753524,
      32.640481
     ],
     [
      35.753557,
      32.640575
     ],
     [
      35.753579,
      32.640657
     ],
     [
      35.753603,
      32.640748
     ],
     [
      35.753644,
      32.640932
     ],
     [
      35.753674,
      32.641166
     ],
     [
      35.75368,
      32.641379
     ],
     [
      35.753673,
      32.641615
     ],
     [
      35.753648,
      32.641828
     ],
     [
      35.753628,
      32.641973
     ],
     [
      35.753591,
      32.642227
     ],
     [
      35.753573,
      32.642315
     ],
     [
      35.753557,
      32.642413
     ],
     [
      35.753544,
      32.642451
     ],
     [
      35.753523,
      32.642514
     ],
     [
      35.753493,
      32.642575
     ],
     [
      35.753469,
      32.642619
     ],
     [
      35.753439,
      32.642663
     ],
     [
      35.753421,
      32.642686
     ],
     [
      35.753392,
      32.642731
     ],
     [
      35.753274,
      32.642895
     ],
     [
      35.753239,
      32.642947
     ],
     [
      35.753184,
      32.643025
     ],
     [
      35.753107,
      32.643129
     ],
     [
      35.753049,
      32.643209
     ],
     [
      35.752964,
      32.643316
     ],
     [
      35.752867,
      32.64344
     ],
     [
      35.752761,
      32.643582
     ],
     [
      35.752607,
      32.643781
     ],
     [
      35.752518,
      32.643902
     ],
     [
      35.75241,
      32.644047
     ],
     [
      35.752353,
      32.644126
     ],
     [
      35.752254,
      32.644261
     ],
     [
      35.752143,
      32.644432
     ],
     [
      35.752061,
      32.644574
     ],
     [
      35.751928,
      32.644785
     ],
     [
      35.75182,
      32.644945
     ],
     [
      35.751759,
      32.645017
     ],
     [
      35.751694,
      32.645082
     ],
     [
      35.75167,
      32.6451
     ],
     [
      35.751647,
      32.645112
     ],
     [
      35.751618,
      32.645129
     ],
     [
      35.751558,
      32.645155
     ],
     [
      35.751498,
      32.64517
     ],
     [
      35.751409,
      32.645175
     ],
     [
      35.751301,
      32.645172
     ],
     [
      35.751164,
      32.645157
     ],
     [
      35.750991,
      32.645131
     ],
     [
      35.750852,
      32.645096
     ],
     [
      35.750636,
      32.645025
     ],
     [
      35.750438,
      32.644955
     ],
     [
      35.75028,
      32.644895
     ],
     [
      35.750033,
      32.644809
     ],
     [
      35.749911,
      32.644767
     ],
     [
      35.749757,
      32.64471
     ],
     [
      35.749533,
      32.644633
     ],
     [
      35.749305,
      32.644535
     ],
     [
      35.749129,
      32.644458
     ],
     [
      35.748982,
      32.644399
     ],
     [
      35.7488,
      32.644318
     ],
     [
      35.748685,
      32.644274
     ],
     [
      35.748653,
      32.644262
     ],
     [
      35.748612,
      32.644251
     ],
     [
      35.748562,
      32.644243
     ],
     [
      35.748485,
      32.644239
     ],
     [
      35.748446,
      32.64424
     ],
     [
      35.748399,
      32.644246
     ],
     [
      35.748345,
      32.64426
     ],
     [
      35.748214,
      32.644314
     ],
     [
      35.748098,
      32.644373
     ],
     [
      35.747929,
      32.644462
     ],
     [
      35.747701,
      32.644585
     ],
     [
      35.747538,
      32.644675
     ],
     [
      35.747359,
      32.644771
     ],
     [
      35.747209,
      32.644853
     ],
     [
      35.747066,
      32.644938
     ],
     [
      35.746988,
      32.644991
     ],
     [
      35.746897,
      32.645052
     ],
     [
      35.746792,
      32.645136
     ],
     [
      35.746736,
      32.645191
     ],
     [
      35.746539,
      32.645375
     ],
     [
      35.74644,
      32.645471
     ],
     [
      35.746193,
      32.645678
     ],
     [
      35.746105,
      32.645744
     ],
     [
      35.746026,
      32.64581
     ],
     [
      35.745966,
      32.645884
     ],
     [
      35.74591,
      32.645992
     ],
     [
      35.745874,
      32.646104
     ],
     [
      35.745826,
      32.646325
     ],
     [
      35.745808,
      32.646519
     ],
     [
      35.745794,
      32.646891
     ],
     [
      35.745739,
      32.647242
     ],
     [
      35.745706,
      32.647359
     ],
     [
      35.745655,
      32.647485
     ],
     [
      35.745606,
      32.647584
     ],
     [
      35.745551,
      32.647666
     ],
     [
      35.745471,
      32.647764
     ],
     [
      35.745357,
      32.647881
     ],
     [
      35.745277,
      32.647955
     ],
     [
      35.745187,
      32.648023
     ],
     [
      35.74509,
      32.648077
     ],
     [
      35.744999,
      32.648102
     ],
     [
      35.744902,
      32.648122
     ],
     [
      35.744778,
      32.648137
     ],
     [
      35.744583,
      32.64817
     ],
     [
      35.744484,
      32.648325
     ],
     [
      35.744369,
      32.648502
     ],
     [
      35.744162,
      32.648845
     ],
     [
      35.74397,
      32.649168
     ],
     [
      35.74384,
      32.649386
     ],
     [
      35.743734,
      32.649578
     ],
     [
      35.743635,
      32.649761
     ],
     [
      35.743615,
      32.6498
     ],
     [
      35.743591,
      32.649866
     ],
     [
      35.743571,
      32.649941
     ],
     [
      35.743547,
      32.650026
     ],
     [
      35.743517,
      32.650132
     ],
     [
      35.743493,
      32.650217
     ],
     [
      35.743471,
      32.650306
     ],
     [
      35.743431,
      32.650514
     ],
     [
      35.74339,
      32.650661
     ],
     [
      35.743333,
      32.650801
     ],
     [
      35.743285,
      32.650889
     ],
     [
      35.74323,
      32.650971
     ],
     [
      35.743139,
      32.651108
     ],
     [
      35.743063,
      32.651221
     ],
     [
      35.74301,
      32.651337
     ],
     [
      35.742977,
      32.651417
     ],
     [
      35.742954,
      32.651498
     ],
     [
      35.742911,
      32.651688
     ],
     [
      35.742885,
      32.651781
     ],
     [
      35.742844,
      32.651898
     ],
     [
      35.742838,
      32.651953
     ],
     [
      35.742824,
      32.652023
     ],
     [
      35.742813,
      32.652065
     ],
     [
      35.742803,
      32.652107
     ],
     [
      35.7428,
      32.652141
     ],
     [
      35.742809,
      32.652204
     ],
     [
      35.742802,
      32.652298
     ],
     [
      35.742747,
      32.652393
     ],
     [
      35.7427,
      32.652452
     ],
     [
      35.74261,
      32.65257
     ],
     [
      35.742513,
      32.652711
     ],
     [
      35.742448,
      32.652835
     ],
     [
      35.742387,
      32.653019
     ],
     [
      35.742338,
      32.653163
     ],
     [
      35.742298,
      32.653285
     ],
     [
      35.742247,
      32.653463
     ],
     [
      35.742213,
      32.653635
     ],
     [
      35.742193,
      32.653795
     ],
     [
      35.74218,
      32.65398
     ],
     [
      35.742179,
      32.65417
     ],
     [
      35.742187,
      32.654368
     ],
     [
      35.742203,
      32.654607
     ],
     [
      35.742218,
      32.654757
     ],
     [
      35.742248,
      32.654933
     ],
     [
      35.742289,
      32.655119
     ],
     [
      35.742346,
      32.655325
     ],
     [
      35.742405,
      32.655527
     ],
     [
      35.742478,
      32.65574
     ],
     [
      35.742513,
      32.655839
     ],
     [
      35.742592,
      32.656076
     ],
     [
      35.742726,
      32.656371
     ],
     [
      35.74281,
      32.656546
     ],
     [
      35.742877,
      32.656672
     ],
     [
      35.742958,
      32.656802
     ],
     [
      35.743066,
      32.657006
     ],
     [
      35.743112,
      32.657122
     ],
     [
      35.743202,
      32.657282
     ],
     [
      35.743378,
      32.657616
     ],
     [
      35.743444,
      32.657879
     ],
     [
      35.743595,
      32.658109
     ],
     [
      35.743661,
      32.658213
     ],
     [
      35.743763,
      32.658365
     ],
     [
      35.743867,
      32.658509
     ],
     [
      35.744017,
      32.658671
     ],
     [
      35.744154,
      32.658833
     ],
     [
      35.744292,
      32.658963
     ],
     [
      35.744415,
      32.65907
     ],
     [
      35.744552,
      32.659199
     ],
     [
      35.744762,
      32.659359
     ],
     [
      35.74498,
      32.659537
     ],
     [
      35.745115,
      32.659672
     ],
     [
      35.745245,
      32.659818
     ],
     [
      35.745278,
      32.65987
     ],
     [
      35.745402,
      32.660027
     ],
     [
      35.745573,
      32.660307
     ],
     [
      35.745645,
      32.660404
     ],
     [
      35.745869,
      32.660741
     ],
     [
      35.745996,
      32.660937
     ],
     [
      35.74609,
      32.661127
     ],
     [
      35.746185,
      32.661286
     ],
     [
      35.74632,
      32.661502
     ],
     [
      35.746409,
      32.661665
     ],
     [
      35.746415,
      32.661688
     ],
     [
      35.746501,
      32.661915
     ],
     [
      35.74658,
      32.662104
     ],
     [
      35.746655,
      32.66242
     ],
     [
      35.746729,
      32.66279
     ],
     [
      35.7468,
      32.663102
     ],
     [
      35.746879,
      32.663362
     ],
     [
      35.746912,
      32.663465
     ],
     [
      35.746974,
      32.663621
     ],
     [
      35.747054,
      32.663805
     ],
     [
      35.747153,
      32.663979
     ],
     [
      35.7477,
      32.664991
     ],
     [
      35.747932,
      32.665497
     ],
     [
      35.748312,
      32.666485
     ],
     [
      35.748409,
      32.666721
     ],
     [
      35.748591,
      32.667096
     ],
     [
      35.748633,
      32.667171
     ],
     [
      35.74874,
      32.66736
     ],
     [
      35.748887,
      32.667439
     ],
     [
      35.748928,
      32.667486
     ],
     [
      35.748987,
      32.667552
     ],
     [
      35.749227,
      32.667763
     ],
     [
      35.74939,
      32.66789
     ],
     [
      35.749555,
      32.668033
     ],
     [
      35.749725,
      32.668194
     ],
     [
      35.749841,
      32.668329
     ],
     [
      35.749927,
      32.668469
     ],
     [
      35.750076,
      32.668776
     ],
     [
      35.750194,
      32.669051
     ],
     [
      35.750274,
      32.669279
     ],
     [
      35.750298,
      32.669359
     ],
     [
      35.750451,
      32.66991
     ],
     [
      35.750674,
      32.670868
     ],
     [
      35.750668,
      32.670899
     ],
     [
      35.750653,
      32.670925
     ],
     [
      35.750664,
      32.670974
     ],
     [
      35.750658,
      32.671063
     ],
     [
      35.750654,
      32.671112
     ],
     [
      35.750652,
      32.671181
     ],
     [
      35.750618,
      32.671659
     ]
    ]
   }
  },
  {
   "type": "Feature",
   "properties": {
    "kind": "hub",
    "stop_id": "irbid",
    "name_ar": "إربد",
    "name_en": "Irbid",
    "progress_km": 0.0,
    "note": "PLACEHOLDER, NOT THE REAL HUB: OpenStreetMap city-centre point for Irbid. Replace with the actual bus complex (مجمع) these lines depart from before public use.",
    "placeholder": true
   },
   "geometry": {
    "type": "Point",
    "coordinates": [
     35.849302,
     32.555609
    ]
   }
  },
  {
   "type": "Feature",
   "properties": {
    "kind": "village",
    "name_ar": "تقبل",
    "progress_km": 6.0,
    "note": "Provisional: village detected along the OSM corridor; confirm the actual waiting point with drivers.",
    "stop_id": "tuqbul",
    "name_en": "Tuqbul",
    "provisional": true
   },
   "geometry": {
    "type": "Point",
    "coordinates": [
     35.818312,
     32.597411
    ]
   }
  },
  {
   "type": "Feature",
   "properties": {
    "kind": "village",
    "name_ar": "حور",
    "progress_km": 9.0,
    "note": "Provisional: village detected along the OSM corridor; confirm the actual waiting point with drivers.",
    "stop_id": "hor",
    "name_en": "Hor",
    "provisional": true
   },
   "geometry": {
    "type": "Point",
    "coordinates": [
     35.789666,
     32.604922
    ]
   }
  },
  {
   "type": "Feature",
   "properties": {
    "kind": "village",
    "name_ar": "فوعرا",
    "progress_km": 12.0,
    "note": "Provisional: village detected along the OSM corridor; confirm the actual waiting point with drivers.",
    "stop_id": "foara",
    "name_en": "Fo'ara",
    "provisional": true
   },
   "geometry": {
    "type": "Point",
    "coordinates": [
     35.762873,
     32.615679
    ]
   }
  },
  {
   "type": "Feature",
   "properties": {
    "kind": "village",
    "name_ar": "اسعرة",
    "progress_km": 14.0,
    "note": "Provisional: village detected along the OSM corridor; confirm the actual waiting point with drivers.",
    "stop_id": "isara",
    "name_en": "Is'ara",
    "provisional": true
   },
   "geometry": {
    "type": "Point",
    "coordinates": [
     35.753572,
     32.625241
    ]
   }
  },
  {
   "type": "Feature",
   "properties": {
    "kind": "village",
    "name_ar": "حاتم",
    "progress_km": 16.0,
    "note": "Provisional: village detected along the OSM corridor; confirm the actual waiting point with drivers.",
    "stop_id": "hatim",
    "name_en": "Hatim",
    "provisional": true
   },
   "geometry": {
    "type": "Point",
    "coordinates": [
     35.751843,
     32.635601
    ]
   }
  },
  {
   "type": "Feature",
   "properties": {
    "kind": "village",
    "name_ar": "بلد الشيخ",
    "progress_km": 18.0,
    "note": "Provisional: village detected along the OSM corridor; confirm the actual waiting point with drivers.",
    "stop_id": "balad_al_sheikh",
    "name_en": "Balad Al-Sheikh",
    "provisional": true
   },
   "geometry": {
    "type": "Point",
    "coordinates": [
     35.745415,
     32.647821
    ]
   }
  },
  {
   "type": "Feature",
   "properties": {
    "kind": "terminus",
    "stop_id": "malka",
    "name_ar": "ملكا",
    "name_en": "Malka",
    "progress_km": 20.95,
    "note": "OSM place centre; verify the village bus stop",
    "provisional": true
   },
   "geometry": {
    "type": "Point",
    "coordinates": [
     35.750779,
     32.671667
    ]
   }
  }
 ],
 "provenance": {
  "source": "OpenStreetMap (© OpenStreetMap contributors, ODbL). Road corridor via OSRM, places via Nominatim.",
  "status": "provisional",
  "field_check_required": [
   "Irbid hub (which مجمع these lines use)",
   "road actually driven",
   "village waiting points",
   "terminus stop"
  ],
  "traced_on": "2026-09-21",
  "note": "Auto-traced field data. Not verified. Do not ship to the public as-is."
 }
}