{
 "type": "FeatureCollection",
 "route_id": "irbid_habras",
 "name_ar": "إربد ↔ حبراص",
 "name_en": "Irbid <-> Habras",
 "features": [
  {
   "type": "Feature",
   "properties": {
    "kind": "corridor",
    "route_id": "irbid_habras",
    "total_km": 15.846,
    "source": "OpenStreetMap via OSRM (provisional, field-check before public use)"
   },
   "geometry": {
    "type": "LineString",
    "coordinates": [
     [
      35.849316,
      32.555706
     ],
     [
      35.849528,
      32.555684
     ],
     [
      35.849388,
      32.555968
     ],
     [
      35.84937,
      32.55604
     ],
     [
      35.849364,
      32.55608
     ],
     [
      35.849366,
      32.556127
     ],
     [
      35.849382,
      32.556201
     ],
     [
      35.849402,
      32.556256
     ],
     [
      35.849514,
      32.556686
     ],
     [
      35.850758,
      32.556734
     ],
     [
      35.851728,
      32.556788
     ],
     [
      35.851892,
      32.556802
     ],
     [
      35.853117,
      32.55684
     ],
     [
      35.853108,
      32.556928
     ],
     [
      35.85308,
      32.557398
     ],
     [
      35.853068,
      32.557958
     ],
     [
      35.853046,
      32.558513
     ],
     [
      35.853026,
      32.559088
     ],
     [
      35.853009,
      32.559582
     ],
     [
      35.852986,
      32.560249
     ],
     [
      35.852978,
      32.560613
     ],
     [
      35.852967,
      32.560916
     ],
     [
      35.852972,
      32.560971
     ],
     [
      35.852975,
      32.560984
     ],
     [
      35.852981,
      32.560997
     ],
     [
      35.852989,
      32.561009
     ],
     [
      35.853021,
      32.561043
     ],
     [
      35.853262,
      32.561296
     ],
     [
      35.853999,
      32.562086
     ],
     [
      35.854188,
      32.562289
     ],
     [
      35.854364,
      32.562464
     ],
     [
      35.85442,
      32.562517
     ],
     [
      35.854484,
      32.562566
     ],
     [
      35.854528,
      32.562571
     ],
     [
      35.854568,
      32.562588
     ],
     [
      35.854598,
      32.562616
     ],
     [
      35.854614,
      32.562642
     ],
     [
      35.854621,
      32.562671
     ],
     [
      35.854619,
      32.5627
     ],
     [
      35.854609,
      32.562728
     ],
     [
      35.85459,
      32.562752
     ],
     [
      35.854575,
      32.562765
     ],
     [
      35.854575,
      32.562796
     ],
     [
      35.854573,
      32.562824
     ],
     [
      35.854573,
      32.56284
     ],
     [
      35.854574,
      32.562868
     ],
     [
      35.854689,
      32.56354
     ],
     [
      35.854713,
      32.563679
     ],
     [
      35.854761,
      32.563987
     ],
     [
      35.854835,
      32.564424
     ],
     [
      35.854935,
      32.56503
     ],
     [
      35.854949,
      32.565105
     ],
     [
      35.855157,
      32.566148
     ],
     [
      35.855228,
      32.566427
     ],
     [
      35.855312,
      32.566634
     ],
     [
      35.855403,
      32.566829
     ],
     [
      35.855468,
      32.566937
     ],
     [
      35.855537,
      32.567027
     ],
     [
      35.855629,
      32.567113
     ],
     [
      35.85575,
      32.567226
     ],
     [
      35.855928,
      32.567369
     ],
     [
      35.856433,
      32.567788
     ],
     [
      35.856616,
      32.567927
     ],
     [
      35.856786,
      32.568065
     ],
     [
      35.856877,
      32.568141
     ],
     [
      35.857052,
      32.568282
     ],
     [
      35.857358,
      32.568524
     ],
     [
      35.85803,
      32.569061
     ],
     [
      35.858299,
      32.56928
     ],
     [
      35.858302,
      32.569282
     ],
     [
      35.858399,
      32.569331
     ],
     [
      35.858516,
      32.569379
     ],
     [
      35.858772,
      32.56943
     ],
     [
      35.859038,
      32.56947
     ],
     [
      35.859442,
      32.569584
     ],
     [
      35.859972,
      32.569706
     ],
     [
      35.860204,
      32.569763
     ],
     [
      35.860386,
      32.569806
     ],
     [
      35.860485,
      32.569837
     ],
     [
      35.860602,
      32.569881
     ],
     [
      35.860679,
      32.569916
     ],
     [
      35.860799,
      32.569981
     ],
     [
      35.861105,
      32.57016
     ],
     [
      35.861451,
      32.570392
     ],
     [
      35.861515,
      32.570433
     ],
     [
      35.861564,
      32.57047
     ],
     [
      35.861834,
      32.570716
     ],
     [
      35.861899,
      32.570776
     ],
     [
      35.861998,
      32.570877
     ],
     [
      35.862297,
      32.571178
     ],
     [
      35.862435,
      32.57133
     ],
     [
      35.862521,
      32.571422
     ],
     [
      35.862571,
      32.571472
     ],
     [
      35.86261,
      32.5715
     ],
     [
      35.862655,
      32.571523
     ],
     [
      35.862697,
      32.571543
     ],
     [
      35.86275,
      32.571569
     ],
     [
      35.862808,
      32.571577
     ],
     [
      35.86286,
      32.571598
     ],
     [
      35.862906,
      32.571629
     ],
     [
      35.862942,
      32.571671
     ],
     [
      35.862964,
      32.57172
     ],
     [
      35.86297,
      32.571772
     ],
     [
      35.862959,
      32.571824
     ],
     [
      35.862939,
      32.571863
     ],
     [
      35.862917,
      32.571891
     ],
     [
      35.862949,
      32.571966
     ],
     [
      35.862991,
      32.572061
     ],
     [
      35.86304,
      32.572176
     ],
     [
      35.86364,
      32.573643
     ],
     [
      35.863865,
      32.574194
     ],
     [
      35.863919,
      32.574333
     ],
     [
      35.863986,
      32.57449
     ],
     [
      35.864093,
      32.57468
     ],
     [
      35.864181,
      32.574835
     ],
     [
      35.864542,
      32.575415
     ],
     [
      35.86476,
      32.575765
     ],
     [
      35.864784,
      32.575799
     ],
     [
      35.864794,
      32.575814
     ],
     [
      35.864821,
      32.575852
     ],
     [
      35.865222,
      32.576532
     ],
     [
      35.865389,
      32.576817
     ],
     [
      35.865625,
      32.577218
     ],
     [
      35.865767,
      32.577441
     ],
     [
      35.865858,
      32.577598
     ],
     [
      35.865956,
      32.577773
     ],
     [
      35.866268,
      32.578387
     ],
     [
      35.866396,
      32.578638
     ],
     [
      35.866437,
      32.578697
     ],
     [
      35.86649,
      32.57876
     ],
     [
      35.866525,
      32.578796
     ],
     [
      35.866558,
      32.578829
     ],
     [
      35.866632,
      32.578877
     ],
     [
      35.866664,
      32.578876
     ],
     [
      35.866745,
      32.578888
     ],
     [
      35.866804,
      32.578907
     ],
     [
      35.866859,
      32.578939
     ],
     [
      35.867122,
      32.579258
     ],
     [
      35.867178,
      32.579355
     ],
     [
      35.867178,
      32.579458
     ],
     [
      35.867156,
      32.579535
     ],
     [
      35.867108,
      32.5796
     ],
     [
      35.867045,
      32.579647
     ],
     [
      35.866972,
      32.579679
     ],
     [
      35.866929,
      32.579782
     ],
     [
      35.866896,
      32.57987
     ],
     [
      35.866875,
      32.57995
     ],
     [
      35.866862,
      32.58005
     ],
     [
      35.866851,
      32.580168
     ],
     [
      35.866846,
      32.580319
     ],
     [
      35.866841,
      32.58051
     ],
     [
      35.866836,
      32.580629
     ],
     [
      35.866803,
      32.581434
     ],
     [
      35.866798,
      32.581579
     ],
     [
      35.866803,
      32.581708
     ],
     [
      35.866824,
      32.581868
     ],
     [
      35.866849,
      32.581904
     ],
     [
      35.866855,
      32.581944
     ],
     [
      35.866844,
      32.581984
     ],
     [
      35.866816,
      32.582017
     ],
     [
      35.866794,
      32.582031
     ],
     [
      35.866735,
      32.582696
     ],
     [
      35.866723,
      32.582871
     ],
     [
      35.866713,
      32.582976
     ],
     [
      35.866705,
      32.583063
     ],
     [
      35.866692,
      32.58317
     ],
     [
      35.866672,
      32.583301
     ],
     [
      35.866649,
      32.583434
     ],
     [
      35.866617,
      32.583556
     ],
     [
      35.866579,
      32.583695
     ],
     [
      35.866531,
      32.583861
     ],
     [
      35.866285,
      32.584557
     ],
     [
      35.865791,
      32.585845
     ],
     [
      35.865563,
      32.586439
     ],
     [
      35.865415,
      32.586835
     ],
     [
      35.865139,
      32.587549
     ],
     [
      35.864646,
      32.588836
     ],
     [
      35.864249,
      32.589879
     ],
     [
      35.863872,
      32.590876
     ],
     [
      35.863744,
      32.591251
     ],
     [
      35.863594,
      32.591624
     ],
     [
      35.863347,
      32.59214
     ],
     [
      35.863107,
      32.592647
     ],
     [
      35.862819,
      32.593216
     ],
     [
      35.862379,
      32.594115
     ],
     [
      35.862316,
      32.594256
     ],
     [
      35.862269,
      32.594365
     ],
     [
      35.862221,
      32.594452
     ],
     [
      35.862191,
      32.594499
     ],
     [
      35.862155,
      32.594549
     ],
     [
      35.862166,
      32.594563
     ],
     [
      35.86217,
      32.594598
     ],
     [
      35.862157,
      32.594645
     ],
     [
      35.862082,
      32.594776
     ],
     [
      35.862063,
      32.594803
     ],
     [
      35.862044,
      32.59482
     ],
     [
      35.86203,
      32.594897
     ],
     [
      35.862011,
      32.594995
     ],
     [
      35.862012,
      32.595118
     ],
     [
      35.862056,
      32.595639
     ],
     [
      35.862143,
      32.596562
     ],
     [
      35.862182,
      32.597004
     ],
     [
      35.862223,
      32.597317
     ],
     [
      35.86223,
      32.597389
     ],
     [
      35.86226,
      32.597788
     ],
     [
      35.862307,
      32.598515
     ],
     [
      35.862347,
      32.598998
     ],
     [
      35.862352,
      32.599111
     ],
     [
      35.86233,
      32.599334
     ],
     [
      35.862313,
      32.599455
     ],
     [
      35.862289,
      32.599558
     ],
     [
      35.862209,
      32.599827
     ],
     [
      35.862138,
      32.600096
     ],
     [
      35.862053,
      32.600379
     ],
     [
      35.86197,
      32.600582
     ],
     [
      35.861892,
      32.600741
     ],
     [
      35.861791,
      32.600918
     ],
     [
      35.861632,
      32.60115
     ],
     [
      35.861236,
      32.601674
     ],
     [
      35.861134,
      32.601827
     ],
     [
      35.86106,
      32.601965
     ],
     [
      35.861004,
      32.602093
     ],
     [
      35.86097,
      32.602192
     ],
     [
      35.860939,
      32.602326
     ],
     [
      35.860912,
      32.602514
     ],
     [
      35.860887,
      32.603005
     ],
     [
      35.860906,
      32.603345
     ],
     [
      35.860931,
      32.603558
     ],
     [
      35.860964,
      32.603754
     ],
     [
      35.860999,
      32.603891
     ],
     [
      35.861196,
      32.604653
     ],
     [
      35.861249,
      32.604822
     ],
     [
      35.861306,
      32.604968
     ],
     [
      35.861349,
      32.60507
     ],
     [
      35.861399,
      32.605167
     ],
     [
      35.861541,
      32.605423
     ],
     [
      35.861957,
      32.606064
     ],
     [
      35.862173,
      32.606362
     ],
     [
      35.862205,
      32.606398
     ],
     [
      35.862242,
      32.606436
     ],
     [
      35.862486,
      32.606625
     ],
     [
      35.862527,
      32.606648
     ],
     [
      35.862556,
      32.60668
     ],
     [
      35.862572,
      32.606717
     ],
     [
      35.862574,
      32.606757
     ],
     [
      35.862554,
      32.606807
     ],
     [
      35.862491,
      32.607003
     ],
     [
      35.862474,
      32.607086
     ],
     [
      35.862454,
      32.607256
     ],
     [
      35.862456,
      32.607397
     ],
     [
      35.862457,
      32.607599
     ],
     [
      35.86245,
      32.608005
     ],
     [
      35.862448,
      32.608205
     ],
     [
      35.862429,
      32.608541
     ],
     [
      35.862366,
      32.609309
     ],
     [
      35.862321,
      32.60996
     ],
     [
      35.862238,
      32.610869
     ],
     [
      35.862167,
      32.611918
     ],
     [
      35.862135,
      32.612282
     ],
     [
      35.862122,
      32.612486
     ],
     [
      35.862064,
      32.612729
     ],
     [
      35.862021,
      32.612833
     ],
     [
      35.861962,
      32.612933
     ],
     [
      35.861882,
      32.613036
     ],
     [
      35.86174,
      32.613167
     ],
     [
      35.861557,
      32.613331
     ],
     [
      35.860688,
      32.614014
     ],
     [
      35.86029,
      32.614315
     ],
     [
      35.859749,
      32.614723
     ],
     [
      35.859413,
      32.614979
     ],
     [
      35.859068,
      32.615234
     ],
     [
      35.85879,
      32.615422
     ],
     [
      35.858582,
      32.615552
     ],
     [
      35.85835,
      32.615671
     ],
     [
      35.858043,
      32.615794
     ],
     [
      35.857626,
      32.615946
     ],
     [
      35.85739,
      32.616031
     ],
     [
      35.857176,
      32.616114
     ],
     [
      35.856648,
      32.616321
     ],
     [
      35.856485,
      32.616382
     ],
     [
      35.85626,
      32.616473
     ],
     [
      35.85576,
      32.616672
     ],
     [
      35.855407,
      32.616804
     ],
     [
      35.855158,
      32.616886
     ],
     [
      35.85482,
      32.616995
     ],
     [
      35.854558,
      32.617061
     ],
     [
      35.854113,
      32.617146
     ],
     [
      35.853905,
      32.617194
     ],
     [
      35.853737,
      32.617234
     ],
     [
      35.853537,
      32.617294
     ],
     [
      35.853401,
      32.617343
     ],
     [
      35.853162,
      32.617446
     ],
     [
      35.852938,
      32.61755
     ],
     [
      35.852659,
      32.617684
     ],
     [
      35.852641,
      32.617692
     ],
     [
      35.852358,
      32.617817
     ],
     [
      35.8521,
      32.617934
     ],
     [
      35.851986,
      32.617988
     ],
     [
      35.85176,
      32.618097
     ],
     [
      35.851471,
      32.618226
     ],
     [
      35.851134,
      32.618372
     ],
     [
      35.850886,
      32.61848
     ],
     [
      35.850654,
      32.618605
     ],
     [
      35.850478,
      32.618707
     ],
     [
      35.850341,
      32.618797
     ],
     [
      35.85021,
      32.618883
     ],
     [
      35.850079,
      32.618978
     ],
     [
      35.849938,
      32.619076
     ],
     [
      35.849753,
      32.619211
     ],
     [
      35.849397,
      32.619499
     ],
     [
      35.849212,
      32.619646
     ],
     [
      35.849065,
      32.619773
     ],
     [
      35.84888,
      32.619955
     ],
     [
      35.848782,
      32.620063
     ],
     [
      35.848609,
      32.620256
     ],
     [
      35.847958,
      32.620999
     ],
     [
      35.847892,
      32.621081
     ],
     [
      35.847284,
      32.621802
     ],
     [
      35.846511,
      32.622706
     ],
     [
      35.846073,
      32.623207
     ],
     [
      35.845802,
      32.623549
     ],
     [
      35.845534,
      32.623864
     ],
     [
      35.845281,
      32.624153
     ],
     [
      35.84513,
      32.624371
     ],
     [
      35.845052,
      32.624504
     ],
     [
      35.844911,
      32.624794
     ],
     [
      35.84471,
      32.625255
     ],
     [
      35.8443,
      32.626211
     ],
     [
      35.843986,
      32.626933
     ],
     [
      35.843816,
      32.627324
     ],
     [
      35.843665,
      32.627721
     ],
     [
      35.843534,
      32.628065
     ],
     [
      35.843435,
      32.628411
     ],
     [
      35.843325,
      32.628847
     ],
     [
      35.843115,
      32.629588
     ],
     [
      35.842863,
      32.630372
     ],
     [
      35.842813,
      32.630535
     ],
     [
      35.842786,
      32.630662
     ],
     [
      35.842773,
      32.630761
     ],
     [
      35.842767,
      32.630872
     ],
     [
      35.842769,
      32.630924
     ],
     [
      35.842779,
      32.630965
     ],
     [
      35.842811,
      32.63107
     ],
     [
      35.842862,
      32.631173
     ],
     [
      35.842873,
      32.631216
     ],
     [
      35.842863,
      32.631285
     ],
     [
      35.842838,
      32.631329
     ],
     [
      35.842798,
      32.631365
     ],
     [
      35.842749,
      32.63139
     ],
     [
      35.842693,
      32.631403
     ],
     [
      35.842638,
      32.631402
     ],
     [
      35.842577,
      32.631456
     ],
     [
      35.842521,
      32.631501
     ],
     [
      35.842455,
      32.631557
     ],
     [
      35.842374,
      32.631633
     ],
     [
      35.842276,
      32.631735
     ],
     [
      35.842165,
      32.631847
     ],
     [
      35.842118,
      32.631892
     ],
     [
      35.842061,
      32.631939
     ],
     [
      35.841914,
      32.632042
     ],
     [
      35.841616,
      32.632255
     ],
     [
      35.841306,
      32.63245
     ],
     [
      35.840885,
      32.632709
     ],
     [
      35.840317,
      32.633069
     ],
     [
      35.839948,
      32.633299
     ],
     [
      35.839395,
      32.633694
     ],
     [
      35.839166,
      32.633879
     ],
     [
      35.839029,
      32.634032
     ],
     [
      35.838942,
      32.634171
     ],
     [
      35.838849,
      32.634322
     ],
     [
      35.838766,
      32.634518
     ],
     [
      35.838711,
      32.63466
     ],
     [
      35.838348,
      32.635846
     ],
     [
      35.838245,
      32.636078
     ],
     [
      35.838185,
      32.636183
     ],
     [
      35.838042,
      32.636408
     ],
     [
      35.83794,
      32.636574
     ],
     [
      35.838058,
      32.637009
     ],
     [
      35.838123,
      32.637287
     ],
     [
      35.838458,
      32.6385
     ],
     [
      35.838634,
      32.639143
     ],
     [
      35.838683,
      32.639339
     ],
     [
      35.838714,
      32.639488
     ],
     [
      35.838745,
      32.639711
     ],
     [
      35.83875,
      32.63988
     ],
     [
      35.838752,
      32.639971
     ],
     [
      35.838743,
      32.640121
     ],
     [
      35.838731,
      32.640331
     ],
     [
      35.838693,
      32.640591
     ],
     [
      35.838654,
      32.640759
     ],
     [
      35.838579,
      32.641036
     ],
     [
      35.838497,
      32.641355
     ],
     [
      35.83831,
      32.6421
     ],
     [
      35.838298,
      32.642144
     ],
     [
      35.837982,
      32.643358
     ],
     [
      35.837901,
      32.643651
     ],
     [
      35.837796,
      32.644071
     ],
     [
      35.837716,
      32.644378
     ],
     [
      35.83766,
      32.644604
     ],
     [
      35.837622,
      32.644802
     ],
     [
      35.837593,
      32.644973
     ],
     [
      35.837577,
      32.645113
     ],
     [
      35.837562,
      32.645335
     ],
     [
      35.837557,
      32.645506
     ],
     [
      35.837552,
      32.645733
     ],
     [
      35.837552,
      32.645767
     ],
     [
      35.837558,
      32.646393
     ],
     [
      35.83757,
      32.647252
     ],
     [
      35.837569,
      32.647492
     ],
     [
      35.837549,
      32.647705
     ],
     [
      35.837547,
      32.647725
     ],
     [
      35.83752,
      32.647882
     ],
     [
      35.837452,
      32.648151
     ],
     [
      35.837376,
      32.648464
     ],
     [
      35.83733,
      32.648687
     ],
     [
      35.837284,
      32.648979
     ],
     [
      35.837239,
      32.649361
     ],
     [
      35.837209,
      32.650288
     ],
     [
      35.837208,
      32.650804
     ],
     [
      35.837215,
      32.651968
     ],
     [
      35.837215,
      32.652466
     ],
     [
      35.837221,
      32.653058
     ],
     [
      35.837201,
      32.653463
     ],
     [
      35.837201,
      32.653627
     ],
     [
      35.83719,
      32.65373
     ],
     [
      35.837173,
      32.653826
     ],
     [
      35.837151,
      32.653925
     ],
     [
      35.837125,
      32.65401
     ],
     [
      35.837098,
      32.654073
     ],
     [
      35.837051,
      32.654172
     ],
     [
      35.837008,
      32.654254
     ],
     [
      35.83694,
      32.654399
     ],
     [
      35.836864,
      32.654543
     ],
     [
      35.836631,
      32.655028
     ],
     [
      35.836335,
      32.655593
     ],
     [
      35.836279,
      32.655688
     ],
     [
      35.836025,
      32.656197
     ],
     [
      35.835687,
      32.656909
     ],
     [
      35.835582,
      32.657139
     ],
     [
      35.835411,
      32.65749
     ],
     [
      35.835093,
      32.658119
     ],
     [
      35.834911,
      32.658493
     ],
     [
      35.834827,
      32.658664
     ],
     [
      35.834762,
      32.658778
     ],
     [
      35.834696,
      32.658881
     ],
     [
      35.834626,
      32.659
     ],
     [
      35.834526,
      32.659172
     ],
     [
      35.834445,
      32.659284
     ],
     [
      35.834406,
      32.65933
     ],
     [
      35.834343,
      32.659393
     ],
     [
      35.834235,
      32.659497
     ],
     [
      35.834044,
      32.659668
     ],
     [
      35.833875,
      32.659811
     ],
     [
      35.833661,
      32.659998
     ],
     [
      35.833834,
      32.660232
     ],
     [
      35.833887,
      32.660315
     ],
     [
      35.834286,
      32.660676
     ],
     [
      35.834852,
      32.661195
     ],
     [
      35.83542,
      32.661705
     ],
     [
      35.835672,
      32.66193
     ],
     [
      35.835847,
      32.662191
     ],
     [
      35.836061,
      32.66264
     ],
     [
      35.836311,
      32.663307
     ],
     [
      35.836798,
      32.664486
     ],
     [
      35.837027,
      32.664916
     ],
     [
      35.837145,
      32.665099
     ],
     [
      35.837317,
      32.66533
     ],
     [
      35.83752,
      32.665565
     ],
     [
      35.837786,
      32.665806
     ],
     [
      35.838274,
      32.666215
     ],
     [
      35.839194,
      32.666987
     ],
     [
      35.840086,
      32.667757
     ],
     [
      35.84036,
      32.667973
     ],
     [
      35.841129,
      32.668608
     ],
     [
      35.841257,
      32.668725
     ],
     [
      35.841858,
      32.669249
     ],
     [
      35.842433,
      32.669728
     ],
     [
      35.843095,
      32.670311
     ],
     [
      35.843425,
      32.670575
     ],
     [
      35.8436,
      32.670691
     ],
     [
      35.843703,
      32.670745
     ],
     [
      35.843834,
      32.670798
     ],
     [
      35.843979,
      32.670839
     ],
     [
      35.844151,
      32.670866
     ],
     [
      35.844298,
      32.6719
     ],
     [
      35.844475,
      32.672952
     ],
     [
      35.844441,
      32.673037
     ],
     [
      35.844184,
      32.673079
     ],
     [
      35.843783,
      32.673123
     ],
     [
      35.84359,
      32.673144
     ],
     [
      35.843543,
      32.673112
     ],
     [
      35.843488,
      32.673082
     ],
     [
      35.843425,
      32.673077
     ],
     [
      35.843322,
      32.673013
     ],
     [
      35.842587,
      32.672475
     ],
     [
      35.842408,
      32.672333
     ]
    ]
   }
  },
  {
   "type": "Feature",
   "properties": {
    "kind": "hub",
    "stop_id": "irbid",
    "name_ar": "إربد",
    "name_en": "Irbid",
    "progress_km": 0.0,
    "note": "Provisional: OSM city centre. Replace with the actual Bani Kinana bus complex (مجمع) used by these lines."
   },
   "geometry": {
    "type": "Point",
    "coordinates": [
     35.849302,
     32.555609
    ]
   }
  },
  {
   "type": "Feature",
   "properties": {
    "kind": "village",
    "name_ar": "بيت رأس",
    "progress_km": 5.0,
    "note": "Provisional: village detected along the OSM corridor; confirm the actual waiting point with drivers.",
    "stop_id": "beit_ras",
    "name_en": "Beit Ras"
   },
   "geometry": {
    "type": "Point",
    "coordinates": [
     35.863371,
     32.59209
    ]
   }
  },
  {
   "type": "Feature",
   "properties": {
    "kind": "village",
    "name_ar": "حريما",
    "progress_km": 7.0,
    "note": "Provisional: village detected along the OSM corridor; confirm the actual waiting point with drivers.",
    "stop_id": "hareema",
    "name_en": "Hareema"
   },
   "geometry": {
    "type": "Point",
    "coordinates": [
     35.862375,
     32.609197
    ]
   }
  },
  {
   "type": "Feature",
   "properties": {
    "kind": "village",
    "name_ar": "القصفة",
    "progress_km": 8.0,
    "note": "Provisional: village detected along the OSM corridor; confirm the actual waiting point with drivers.",
    "stop_id": "al_qasfa",
    "name_en": "Al-Qasfa"
   },
   "geometry": {
    "type": "Point",
    "coordinates": [
     35.857133,
     32.616131
    ]
   }
  },
  {
   "type": "Feature",
   "properties": {
    "kind": "village",
    "name_ar": "سما الروسان",
    "progress_km": 10.0,
    "note": "Provisional: village detected along the OSM corridor; confirm the actual waiting point with drivers.",
    "stop_id": "sama_rousan",
    "name_en": "Sama Al-Rousan"
   },
   "geometry": {
    "type": "Point",
    "coordinates": [
     35.843378,
     32.628638
    ]
   }
  },
  {
   "type": "Feature",
   "properties": {
    "kind": "village",
    "name_ar": "عزريت",
    "progress_km": 12.0,
    "note": "Provisional: village detected along the OSM corridor; confirm the actual waiting point with drivers.",
    "stop_id": "izreet",
    "name_en": "Izreet"
   },
   "geometry": {
    "type": "Point",
    "coordinates": [
     35.837646,
     32.644675
    ]
   }
  },
  {
   "type": "Feature",
   "properties": {
    "kind": "terminus",
    "stop_id": "habras",
    "name_ar": "حبراص",
    "name_en": "Habras",
    "progress_km": 15.846,
    "note": "OSM place centre; verify the village bus stop"
   },
   "geometry": {
    "type": "Point",
    "coordinates": [
     35.842222,
     32.6725
    ]
   }
  }
 ],
 "provenance": {
  "source": "OpenStreetMap (© OpenStreetMap contributors, ODbL). Road corridor via OSRM, places via Nominatim.",
  "status": "provisional",
  "field_check_required": [
   "Irbid hub (which مجمع these lines use)",
   "road actually driven",
   "village waiting points",
   "terminus stop"
  ],
  "traced_on": "2026-09-21"
 }
}