{
 "type": "FeatureCollection",
 "route_id": "irbid_umm_qais",
 "name_ar": "إربد ↔ أم قيس",
 "name_en": "Irbid <-> Umm Qais",
 "features": [
  {
   "type": "Feature",
   "properties": {
    "kind": "corridor",
    "route_id": "irbid_umm_qais",
    "total_km": 27.878,
    "source": "OpenStreetMap via OSRM (provisional, field-check before public use)"
   },
   "geometry": {
    "type": "LineString",
    "coordinates": [
     [
      35.849316,
      32.555706
     ],
     [
      35.849083,
      32.55573
     ],
     [
      35.848892,
      32.555293
     ],
     [
      35.848834,
      32.555171
     ],
     [
      35.84877,
      32.55502
     ],
     [
      35.848696,
      32.554861
     ],
     [
      35.848619,
      32.554695
     ],
     [
      35.84857,
      32.554705
     ],
     [
      35.84852,
      32.5547
     ],
     [
      35.848473,
      32.554683
     ],
     [
      35.848435,
      32.554653
     ],
     [
      35.848411,
      32.554615
     ],
     [
      35.848344,
      32.554591
     ],
     [
      35.848311,
      32.554583
     ],
     [
      35.848269,
      32.554575
     ],
     [
      35.847725,
      32.554517
     ],
     [
      35.847183,
      32.554468
     ],
     [
      35.847033,
      32.55447
     ],
     [
      35.846916,
      32.554484
     ],
     [
      35.846562,
      32.554569
     ],
     [
      35.846078,
      32.554749
     ],
     [
      35.845627,
      32.554927
     ],
     [
      35.844873,
      32.555222
     ],
     [
      35.844882,
      32.555144
     ],
     [
      35.844889,
      32.55509
     ],
     [
      35.844895,
      32.555036
     ],
     [
      35.844898,
      32.554982
     ],
     [
      35.844922,
      32.554563
     ],
     [
      35.844951,
      32.554075
     ],
     [
      35.844958,
      32.553947
     ],
     [
      35.844877,
      32.553921
     ],
     [
      35.844063,
      32.553644
     ],
     [
      35.84301,
      32.553286
     ],
     [
      35.8423,
      32.553036
     ],
     [
      35.841821,
      32.552861
     ],
     [
      35.841708,
      32.552828
     ],
     [
      35.841233,
      32.552678
     ],
     [
      35.840736,
      32.552513
     ],
     [
      35.840073,
      32.552283
     ],
     [
      35.838986,
      32.551894
     ],
     [
      35.83815,
      32.551571
     ],
     [
      35.838046,
      32.551532
     ],
     [
      35.837797,
      32.551454
     ],
     [
      35.837677,
      32.551413
     ],
     [
      35.837626,
      32.5514
     ],
     [
      35.837589,
      32.551392
     ],
     [
      35.83748,
      32.551362
     ],
     [
      35.837358,
      32.551329
     ],
     [
      35.837035,
      32.551245
     ],
     [
      35.836756,
      32.551184
     ],
     [
      35.836364,
      32.551099
     ],
     [
      35.835097,
      32.550806
     ],
     [
      35.834502,
      32.550645
     ],
     [
      35.833853,
      32.550507
     ],
     [
      35.832671,
      32.550249
     ],
     [
      35.83246,
      32.550215
     ],
     [
      35.832184,
      32.550183
     ],
     [
      35.831838,
      32.550168
     ],
     [
      35.83155,
      32.55017
     ],
     [
      35.831315,
      32.550182
     ],
     [
      35.831044,
      32.550217
     ],
     [
      35.83082,
      32.550262
     ],
     [
      35.830569,
      32.550331
     ],
     [
      35.830328,
      32.550413
     ],
     [
      35.830061,
      32.550505
     ],
     [
      35.829718,
      32.550655
     ],
     [
      35.829234,
      32.550967
     ],
     [
      35.827784,
      32.551993
     ],
     [
      35.827266,
      32.552307
     ],
     [
      35.826767,
      32.552569
     ],
     [
      35.826211,
      32.552772
     ],
     [
      35.825892,
      32.552854
     ],
     [
      35.825619,
      32.552915
     ],
     [
      35.825078,
      32.553014
     ],
     [
      35.824555,
      32.553084
     ],
     [
      35.823653,
      32.553213
     ],
     [
      35.823392,
      32.55327
     ],
     [
      35.823138,
      32.553349
     ],
     [
      35.822924,
      32.553422
     ],
     [
      35.822631,
      32.553539
     ],
     [
      35.822365,
      32.553677
     ],
     [
      35.82213,
      32.553826
     ],
     [
      35.821851,
      32.55404
     ],
     [
      35.821589,
      32.554282
     ],
     [
      35.821364,
      32.554481
     ],
     [
      35.821241,
      32.554603
     ],
     [
      35.820736,
      32.555095
     ],
     [
      35.820086,
      32.555714
     ],
     [
      35.819892,
      32.555892
     ],
     [
      35.819768,
      32.555996
     ],
     [
      35.819611,
      32.556125
     ],
     [
      35.819444,
      32.556251
     ],
     [
      35.819265,
      32.556378
     ],
     [
      35.81904,
      32.556517
     ],
     [
      35.818819,
      32.556633
     ],
     [
      35.818501,
      32.556784
     ],
     [
      35.818369,
      32.556839
     ],
     [
      35.818245,
      32.556885
     ],
     [
      35.818112,
      32.556929
     ],
     [
      35.817919,
      32.556987
     ],
     [
      35.817577,
      32.557077
     ],
     [
      35.817303,
      32.557133
     ],
     [
      35.816795,
      32.557206
     ],
     [
      35.81663,
      32.557218
     ],
     [
      35.816336,
      32.557223
     ],
     [
      35.816071,
      32.557219
     ],
     [
      35.815632,
      32.557168
     ],
     [
      35.81508,
      32.557081
     ],
     [
      35.814508,
      32.556981
     ],
     [
      35.813948,
      32.556921
     ],
     [
      35.81315,
      32.55684
     ],
     [
      35.81273,
      32.556805
     ],
     [
      35.8124,
      32.556802
     ],
     [
      35.812115,
      32.556828
     ],
     [
      35.811741,
      32.556877
     ],
     [
      35.810982,
      32.557024
     ],
     [
      35.809917,
      32.557271
     ],
     [
      35.80863,
      32.557521
     ],
     [
      35.807899,
      32.557647
     ],
     [
      35.807487,
      32.557663
     ],
     [
      35.807331,
      32.557666
     ],
     [
      35.80716,
      32.557669
     ],
     [
      35.806646,
      32.557657
     ],
     [
      35.806149,
      32.557649
     ],
     [
      35.805507,
      32.557618
     ],
     [
      35.805396,
      32.557607
     ],
     [
      35.805057,
      32.557561
     ],
     [
      35.804645,
      32.557497
     ],
     [
      35.804356,
      32.557441
     ],
     [
      35.803741,
      32.557295
     ],
     [
      35.803189,
      32.557137
     ],
     [
      35.802678,
      32.556968
     ],
     [
      35.801945,
      32.556671
     ],
     [
      35.80162,
      32.556529
     ],
     [
      35.801178,
      32.556337
     ],
     [
      35.799937,
      32.555753
     ],
     [
      35.799391,
      32.555499
     ],
     [
      35.79902,
      32.555333
     ],
     [
      35.798587,
      32.555158
     ],
     [
      35.79812,
      32.554987
     ],
     [
      35.797865,
      32.5549
     ],
     [
      35.79727,
      32.554721
     ],
     [
      35.797,
      32.554647
     ],
     [
      35.796695,
      32.554567
     ],
     [
      35.796406,
      32.554505
     ],
     [
      35.795565,
      32.554343
     ],
     [
      35.795353,
      32.554309
     ],
     [
      35.794203,
      32.554127
     ],
     [
      35.793473,
      32.554025
     ],
     [
      35.792894,
      32.553948
     ],
     [
      35.792595,
      32.553901
     ],
     [
      35.792297,
      32.553855
     ],
     [
      35.791842,
      32.55379
     ],
     [
      35.791376,
      32.553726
     ],
     [
      35.790905,
      32.553657
     ],
     [
      35.790387,
      32.553572
     ],
     [
      35.790047,
      32.553531
     ],
     [
      35.789227,
      32.553413
     ],
     [
      35.788703,
      32.553318
     ],
     [
      35.783138,
      32.552489
     ],
     [
      35.781287,
      32.552236
     ],
     [
      35.780497,
      32.552136
     ],
     [
      35.779237,
      32.552116
     ],
     [
      35.778808,
      32.552125
     ],
     [
      35.778616,
      32.552136
     ],
     [
      35.778416,
      32.552145
     ],
     [
      35.778319,
      32.55215
     ],
     [
      35.778125,
      32.552164
     ],
     [
      35.778066,
      32.552168
     ],
     [
      35.777219,
      32.552257
     ],
     [
      35.776539,
      32.552349
     ],
     [
      35.77407,
      32.552602
     ],
     [
      35.773697,
      32.552655
     ],
     [
      35.773362,
      32.552692
     ],
     [
      35.772906,
      32.552737
     ],
     [
      35.772517,
      32.552782
     ],
     [
      35.771938,
      32.552852
     ],
     [
      35.769514,
      32.553128
     ],
     [
      35.767975,
      32.553298
     ],
     [
      35.767244,
      32.553381
     ],
     [
      35.766402,
      32.553476
     ],
     [
      35.765785,
      32.553545
     ],
     [
      35.765384,
      32.553594
     ],
     [
      35.765011,
      32.553632
     ],
     [
      35.764059,
      32.553733
     ],
     [
      35.763541,
      32.553794
     ],
     [
      35.762719,
      32.553884
     ],
     [
      35.762498,
      32.553914
     ],
     [
      35.762368,
      32.55393
     ],
     [
      35.761179,
      32.554077
     ],
     [
      35.760619,
      32.554139
     ],
     [
      35.759948,
      32.554212
     ],
     [
      35.75878,
      32.554334
     ],
     [
      35.758068,
      32.554423
     ],
     [
      35.756869,
      32.554596
     ],
     [
      35.756221,
      32.554734
     ],
     [
      35.755477,
      32.554972
     ],
     [
      35.755069,
      32.555141
     ],
     [
      35.75471,
      32.55531
     ],
     [
      35.754306,
      32.555545
     ],
     [
      35.753924,
      32.55578
     ],
     [
      35.753461,
      32.556135
     ],
     [
      35.753176,
      32.556398
     ],
     [
      35.752844,
      32.556727
     ],
     [
      35.752274,
      32.557371
     ],
     [
      35.751663,
      32.558086
     ],
     [
      35.750788,
      32.559119
     ],
     [
      35.749958,
      32.560101
     ],
     [
      35.749772,
      32.560336
     ],
     [
      35.749567,
      32.560581
     ],
     [
      35.749058,
      32.56115
     ],
     [
      35.74858,
      32.5617
     ],
     [
      35.746851,
      32.563699
     ],
     [
      35.746395,
      32.56423
     ],
     [
      35.745572,
      32.565204
     ],
     [
      35.744728,
      32.56622
     ],
     [
      35.742017,
      32.569555
     ],
     [
      35.741721,
      32.56993
     ],
     [
      35.741562,
      32.570123
     ],
     [
      35.740671,
      32.571182
     ],
     [
      35.740432,
      32.571476
     ],
     [
      35.740056,
      32.57192
     ],
     [
      35.739834,
      32.572187
     ],
     [
      35.739492,
      32.572591
     ],
     [
      35.739039,
      32.573126
     ],
     [
      35.738043,
      32.574339
     ],
     [
      35.737573,
      32.574914
     ],
     [
      35.737057,
      32.575544
     ],
     [
      35.736716,
      32.575967
     ],
     [
      35.73615,
      32.57664
     ],
     [
      35.735425,
      32.577526
     ],
     [
      35.735061,
      32.578002
     ],
     [
      35.734886,
      32.578274
     ],
     [
      35.734493,
      32.578914
     ],
     [
      35.734388,
      32.579129
     ],
     [
      35.734108,
      32.579705
     ],
     [
      35.73399,
      32.579993
     ],
     [
      35.733909,
      32.580181
     ],
     [
      35.733832,
      32.580344
     ],
     [
      35.73357,
      32.580963
     ],
     [
      35.733318,
      32.581502
     ],
     [
      35.733109,
      32.581883
     ],
     [
      35.732952,
      32.582124
     ],
     [
      35.732627,
      32.58255
     ],
     [
      35.732351,
      32.582849
     ],
     [
      35.732161,
      32.583042
     ],
     [
      35.731943,
      32.583236
     ],
     [
      35.731758,
      32.583393
     ],
     [
      35.731562,
      32.583539
     ],
     [
      35.731334,
      32.583696
     ],
     [
      35.731077,
      32.583856
     ],
     [
      35.730692,
      32.584075
     ],
     [
      35.730366,
      32.584229
     ],
     [
      35.72958,
      32.584534
     ],
     [
      35.728655,
      32.584842
     ],
     [
      35.728006,
      32.58507
     ],
     [
      35.727102,
      32.585365
     ],
     [
      35.726594,
      32.585524
     ],
     [
      35.726234,
      32.585636
     ],
     [
      35.725785,
      32.585772
     ],
     [
      35.725195,
      32.585968
     ],
     [
      35.724684,
      32.586138
     ],
     [
      35.724446,
      32.586222
     ],
     [
      35.724017,
      32.586372
     ],
     [
      35.723605,
      32.586531
     ],
     [
      35.722499,
      32.586922
     ],
     [
      35.721528,
      32.587235
     ],
     [
      35.719753,
      32.58782
     ],
     [
      35.719058,
      32.588072
     ],
     [
      35.718501,
      32.588333
     ],
     [
      35.718091,
      32.588535
     ],
     [
      35.717066,
      32.589078
     ],
     [
      35.716836,
      32.589201
     ],
     [
      35.716352,
      32.589443
     ],
     [
      35.716348,
      32.589743
     ],
     [
      35.716334,
      32.589954
     ],
     [
      35.716329,
      32.590131
     ],
     [
      35.716322,
      32.590202
     ],
     [
      35.716315,
      32.590365
     ],
     [
      35.716294,
      32.59074
     ],
     [
      35.716278,
      32.591045
     ],
     [
      35.716264,
      32.591223
     ],
     [
      35.716246,
      32.591496
     ],
     [
      35.716224,
      32.591867
     ],
     [
      35.716207,
      32.592367
     ],
     [
      35.716195,
      32.592587
     ],
     [
      35.7162,
      32.592798
     ],
     [
      35.716216,
      32.592976
     ],
     [
      35.716231,
      32.593121
     ],
     [
      35.716277,
      32.593402
     ],
     [
      35.716366,
      32.593737
     ],
     [
      35.716436,
      32.59404
     ],
     [
      35.716483,
      32.594218
     ],
     [
      35.716505,
      32.594342
     ],
     [
      35.716509,
      32.594484
     ],
     [
      35.71649,
      32.594623
     ],
     [
      35.716468,
      32.59471
     ],
     [
      35.716391,
      32.594863
     ],
     [
      35.716276,
      32.595058
     ],
     [
      35.716049,
      32.595293
     ],
     [
      35.715705,
      32.595675
     ],
     [
      35.715428,
      32.596026
     ],
     [
      35.715126,
      32.596357
     ],
     [
      35.714848,
      32.596631
     ],
     [
      35.714493,
      32.596992
     ],
     [
      35.714373,
      32.597125
     ],
     [
      35.714254,
      32.597263
     ],
     [
      35.714191,
      32.597343
     ],
     [
      35.714123,
      32.59741
     ],
     [
      35.714007,
      32.597439
     ],
     [
      35.71394,
      32.59748
     ],
     [
      35.713855,
      32.597515
     ],
     [
      35.71377,
      32.597551
     ],
     [
      35.713636,
      32.597603
     ],
     [
      35.713408,
      32.59769
     ],
     [
      35.713221,
      32.597748
     ],
     [
      35.712924,
      32.597761
     ],
     [
      35.712823,
      32.597769
     ],
     [
      35.712747,
      32.597771
     ],
     [
      35.712664,
      32.59777
     ],
     [
      35.712588,
      32.597764
     ],
     [
      35.712541,
      32.597757
     ],
     [
      35.712438,
      32.597766
     ],
     [
      35.712415,
      32.597783
     ],
     [
      35.712396,
      32.597802
     ],
     [
      35.712379,
      32.597823
     ],
     [
      35.712355,
      32.597851
     ],
     [
      35.712356,
      32.597867
     ],
     [
      35.712353,
      32.597882
     ],
     [
      35.712344,
      32.597894
     ],
     [
      35.712331,
      32.597904
     ],
     [
      35.712315,
      32.59791
     ],
     [
      35.712281,
      32.59793
     ],
     [
      35.712252,
      32.59795
     ],
     [
      35.7122,
      32.597988
     ],
     [
      35.712086,
      32.598049
     ],
     [
      35.711969,
      32.598112
     ],
     [
      35.711713,
      32.598276
     ],
     [
      35.711238,
      32.598541
     ],
     [
      35.710736,
      32.598853
     ],
     [
      35.710529,
      32.598955
     ],
     [
      35.710236,
      32.59911
     ],
     [
      35.709795,
      32.599325
     ],
     [
      35.70933,
      32.599537
     ],
     [
      35.708976,
      32.599708
     ],
     [
      35.708643,
      32.599856
     ],
     [
      35.708507,
      32.599934
     ],
     [
      35.708393,
      32.600012
     ],
     [
      35.708238,
      32.600135
     ],
     [
      35.707677,
      32.60059
     ],
     [
      35.707421,
      32.6008
     ],
     [
      35.707226,
      32.600939
     ],
     [
      35.707013,
      32.601071
     ],
     [
      35.7068,
      32.601187
     ],
     [
      35.706959,
      32.601987
     ],
     [
      35.707071,
      32.60253
     ],
     [
      35.70715,
      32.602975
     ],
     [
      35.707199,
      32.603185
     ],
     [
      35.707241,
      32.603291
     ],
     [
      35.707388,
      32.603597
     ],
     [
      35.707495,
      32.603824
     ],
     [
      35.707639,
      32.604124
     ],
     [
      35.707707,
      32.604242
     ],
     [
      35.707726,
      32.60429
     ],
     [
      35.707721,
      32.604329
     ],
     [
      35.707688,
      32.604376
     ],
     [
      35.707628,
      32.604413
     ],
     [
      35.70751,
      32.604498
     ],
     [
      35.707441,
      32.604561
     ],
     [
      35.707372,
      32.604647
     ],
     [
      35.707182,
      32.604909
     ],
     [
      35.707105,
      32.604993
     ],
     [
      35.706977,
      32.605095
     ],
     [
      35.706713,
      32.605307
     ],
     [
      35.706513,
      32.60555
     ],
     [
      35.706437,
      32.605682
     ],
     [
      35.706402,
      32.60581
     ],
     [
      35.706378,
      32.606063
     ],
     [
      35.706344,
      32.606309
     ],
     [
      35.706283,
      32.606537
     ],
     [
      35.706089,
      32.6072
     ],
     [
      35.70603,
      32.607474
     ],
     [
      35.706024,
      32.607591
     ],
     [
      35.706039,
      32.607709
     ],
     [
      35.70612,
      32.607873
     ],
     [
      35.706226,
      32.608026
     ],
     [
      35.706393,
      32.608212
     ],
     [
      35.706562,
      32.608424
     ],
     [
      35.7069,
      32.608747
     ],
     [
      35.707111,
      32.608998
     ],
     [
      35.707305,
      32.609323
     ],
     [
      35.707435,
      32.609591
     ],
     [
      35.707533,
      32.609813
     ],
     [
      35.707624,
      32.61001
     ],
     [
      35.707659,
      32.610203
     ],
     [
      35.707661,
      32.610331
     ],
     [
      35.707664,
      32.610566
     ],
     [
      35.707647,
      32.610752
     ],
     [
      35.707628,
      32.611247
     ],
     [
      35.707637,
      32.611659
     ],
     [
      35.707656,
      32.611945
     ],
     [
      35.707683,
      32.612154
     ],
     [
      35.707704,
      32.612316
     ],
     [
      35.707736,
      32.612609
     ],
     [
      35.707732,
      32.612807
     ],
     [
      35.707715,
      32.612913
     ],
     [
      35.707693,
      32.612997
     ],
     [
      35.707651,
      32.6131
     ],
     [
      35.707596,
      32.613193
     ],
     [
      35.707518,
      32.613315
     ],
     [
      35.707445,
      32.613414
     ],
     [
      35.707301,
      32.613657
     ],
     [
      35.707172,
      32.613816
     ],
     [
      35.707062,
      32.613913
     ],
     [
      35.70695,
      32.613982
     ],
     [
      35.70683,
      32.61402
     ],
     [
      35.706668,
      32.614072
     ],
     [
      35.706559,
      32.614111
     ],
     [
      35.706489,
      32.614173
     ],
     [
      35.706454,
      32.614235
     ],
     [
      35.706449,
      32.614303
     ],
     [
      35.706469,
      32.614357
     ],
     [
      35.706507,
      32.614419
     ],
     [
      35.706562,
      32.614494
     ],
     [
      35.706634,
      32.614578
     ],
     [
      35.706701,
      32.614661
     ],
     [
      35.7068,
      32.614793
     ],
     [
      35.706898,
      32.614923
     ],
     [
      35.706954,
      32.615007
     ],
     [
      35.706984,
      32.615054
     ],
     [
      35.707009,
      32.615136
     ],
     [
      35.707019,
      32.615186
     ],
     [
      35.70704,
      32.615367
     ],
     [
      35.70705,
      32.615537
     ],
     [
      35.70705,
      32.615776
     ],
     [
      35.707042,
      32.616024
     ],
     [
      35.707022,
      32.616178
     ],
     [
      35.706985,
      32.616289
     ],
     [
      35.706891,
      32.616569
     ],
     [
      35.706765,
      32.616902
     ],
     [
      35.706669,
      32.617158
     ],
     [
      35.706559,
      32.617402
     ],
     [
      35.706425,
      32.617668
     ],
     [
      35.706328,
      32.61789
     ],
     [
      35.706283,
      32.617995
     ],
     [
      35.706241,
      32.618111
     ],
     [
      35.706221,
      32.618199
     ],
     [
      35.706213,
      32.618294
     ],
     [
      35.706208,
      32.618391
     ],
     [
      35.706209,
      32.618609
     ],
     [
      35.706209,
      32.618875
     ],
     [
      35.706209,
      32.619089
     ],
     [
      35.70622,
      32.6192
     ],
     [
      35.706232,
      32.619255
     ],
     [
      35.706262,
      32.619318
     ],
     [
      35.706431,
      32.619577
     ],
     [
      35.706562,
      32.619775
     ],
     [
      35.706658,
      32.619932
     ],
     [
      35.70679,
      32.620157
     ],
     [
      35.706916,
      32.620381
     ],
     [
      35.707038,
      32.620622
     ],
     [
      35.707089,
      32.620747
     ],
     [
      35.707127,
      32.620869
     ],
     [
      35.707144,
      32.621028
     ],
     [
      35.707126,
      32.621196
     ],
     [
      35.707113,
      32.621344
     ],
     [
      35.707119,
      32.621479
     ],
     [
      35.707153,
      32.621601
     ],
     [
      35.707205,
      32.621734
     ],
     [
      35.707343,
      32.621987
     ],
     [
      35.7074,
      32.622095
     ],
     [
      35.707464,
      32.622164
     ],
     [
      35.707545,
      32.622218
     ],
     [
      35.707652,
      32.622262
     ],
     [
      35.707782,
      32.622284
     ],
     [
      35.707913,
      32.62229
     ],
     [
      35.708105,
      32.622278
     ],
     [
      35.708284,
      32.622253
     ],
     [
      35.708385,
      32.622236
     ],
     [
      35.708462,
      32.622219
     ],
     [
      35.708577,
      32.622204
     ],
     [
      35.708773,
      32.622166
     ],
     [
      35.708939,
      32.622134
     ],
     [
      35.709104,
      32.622088
     ],
     [
      35.709198,
      32.622073
     ],
     [
      35.709285,
      32.622064
     ],
     [
      35.709364,
      32.622065
     ],
     [
      35.709469,
      32.622072
     ],
     [
      35.70954,
      32.622083
     ],
     [
      35.709643,
      32.622119
     ],
     [
      35.709855,
      32.6222
     ],
     [
      35.709984,
      32.622258
     ],
     [
      35.710162,
      32.622341
     ],
     [
      35.710397,
      32.622458
     ],
     [
      35.710574,
      32.62258
     ],
     [
      35.710726,
      32.622693
     ],
     [
      35.710832,
      32.622806
     ],
     [
      35.711034,
      32.623033
     ],
     [
      35.711199,
      32.623204
     ],
     [
      35.711344,
      32.623365
     ],
     [
      35.711512,
      32.62357
     ],
     [
      35.711639,
      32.623755
     ],
     [
      35.711709,
      32.62393
     ],
     [
      35.711782,
      32.624049
     ],
     [
      35.711907,
      32.624196
     ],
     [
      35.712067,
      32.624364
     ],
     [
      35.712159,
      32.624451
     ],
     [
      35.712255,
      32.624549
     ],
     [
      35.712326,
      32.624589
     ],
     [
      35.712406,
      32.624608
     ],
     [
      35.712473,
      32.62461
     ],
     [
      35.712562,
      32.624566
     ],
     [
      35.712615,
      32.624513
     ],
     [
      35.712657,
      32.624412
     ],
     [
      35.712669,
      32.623875
     ],
     [
      35.712682,
      32.62352
     ],
     [
      35.71268,
      32.623272
     ],
     [
      35.712666,
      32.623049
     ],
     [
      35.71267,
      32.622987
     ],
     [
      35.712676,
      32.622935
     ],
     [
      35.71269,
      32.622852
     ],
     [
      35.712721,
      32.622749
     ],
     [
      35.712774,
      32.622653
     ],
     [
      35.712846,
      32.622533
     ],
     [
      35.71291,
      32.622451
     ],
     [
      35.71301,
      32.622371
     ],
     [
      35.713141,
      32.622284
     ],
     [
      35.713278,
      32.622219
     ],
     [
      35.713559,
      32.622117
     ],
     [
      35.71384,
      32.622036
     ],
     [
      35.714072,
      32.621978
     ],
     [
      35.71429,
      32.621932
     ],
     [
      35.714471,
      32.621909
     ],
     [
      35.714645,
      32.621903
     ],
     [
      35.714791,
      32.621914
     ],
     [
      35.714939,
      32.62195
     ],
     [
      35.715034,
      32.621983
     ],
     [
      35.715129,
      32.622022
     ],
     [
      35.715226,
      32.622071
     ],
     [
      35.715374,
      32.622152
     ],
     [
      35.715587,
      32.622281
     ],
     [
      35.715712,
      32.622361
     ],
     [
      35.715898,
      32.622468
     ],
     [
      35.716204,
      32.622621
     ],
     [
      35.716605,
      32.622794
     ],
     [
      35.717148,
      32.623045
     ],
     [
      35.717509,
      32.623215
     ],
     [
      35.717737,
      32.623327
     ],
     [
      35.717854,
      32.623386
     ],
     [
      35.718031,
      32.623475
     ],
     [
      35.718418,
      32.623686
     ],
     [
      35.718622,
      32.623814
     ],
     [
      35.718737,
      32.623917
     ],
     [
      35.718818,
      32.624004
     ],
     [
      35.718882,
      32.624091
     ],
     [
      35.718928,
      32.624168
     ],
     [
      35.718973,
      32.624263
     ],
     [
      35.71899,
      32.624372
     ],
     [
      35.719,
      32.62446
     ],
     [
      35.718987,
      32.62454
     ],
     [
      35.718963,
      32.62463
     ],
     [
      35.718929,
      32.624691
     ],
     [
      35.718877,
      32.624772
     ],
     [
      35.718803,
      32.624861
     ],
     [
      35.718668,
      32.624978
     ],
     [
      35.718568,
      32.62504
     ],
     [
      35.718482,
      32.62507
     ],
     [
      35.71837,
      32.625083
     ],
     [
      35.718253,
      32.625068
     ],
     [
      35.718147,
      32.625035
     ],
     [
      35.718031,
      32.624976
     ],
     [
      35.717913,
      32.62488
     ],
     [
      35.717803,
      32.624793
     ],
     [
      35.717661,
      32.624661
     ],
     [
      35.717508,
      32.624474
     ],
     [
      35.717431,
      32.624375
     ],
     [
      35.717324,
      32.624224
     ],
     [
      35.717218,
      32.624092
     ],
     [
      35.717133,
      32.624036
     ],
     [
      35.71708,
      32.624007
     ],
     [
      35.716982,
      32.62398
     ],
     [
      35.716885,
      32.623981
     ],
     [
      35.716812,
      32.624008
     ],
     [
      35.716741,
      32.624045
     ],
     [
      35.716699,
      32.624087
     ],
     [
      35.716648,
      32.624158
     ],
     [
      35.716624,
      32.624206
     ],
     [
      35.716614,
      32.624275
     ],
     [
      35.716635,
      32.624464
     ],
     [
      35.716684,
      32.624767
     ],
     [
      35.716732,
      32.625045
     ],
     [
      35.716758,
      32.625253
     ],
     [
      35.716765,
      32.625402
     ],
     [
      35.716763,
      32.625538
     ],
     [
      35.71672,
      32.625689
     ],
     [
      35.716664,
      32.625807
     ],
     [
      35.716593,
      32.625901
     ],
     [
      35.716539,
      32.625979
     ],
     [
      35.716471,
      32.626062
     ],
     [
      35.716391,
      32.626161
     ],
     [
      35.71631,
      32.626277
     ],
     [
      35.716278,
      32.626359
     ],
     [
      35.716277,
      32.626418
     ],
     [
      35.716287,
      32.626481
     ],
     [
      35.71633,
      32.626522
     ],
     [
      35.716395,
      32.626544
     ],
     [
      35.716472,
      32.626545
     ],
     [
      35.716533,
      32.62654
     ],
     [
      35.716714,
      32.626483
     ],
     [
      35.716872,
      32.626435
     ],
     [
      35.717054,
      32.626372
     ],
     [
      35.717231,
      32.626322
     ],
     [
      35.717361,
      32.626304
     ],
     [
      35.717505,
      32.626308
     ],
     [
      35.717657,
      32.626337
     ],
     [
      35.717785,
      32.626369
     ],
     [
      35.717869,
      32.626412
     ],
     [
      35.717979,
      32.626472
     ],
     [
      35.718074,
      32.626547
     ],
     [
      35.718155,
      32.626634
     ],
     [
      35.718233,
      32.626732
     ],
     [
      35.718259,
      32.626859
     ],
     [
      35.718266,
      32.626988
     ],
     [
      35.718256,
      32.627105
     ],
     [
      35.718241,
      32.627212
     ],
     [
      35.718196,
      32.627323
     ],
     [
      35.718108,
      32.627487
     ],
     [
      35.718015,
      32.627603
     ],
     [
      35.71788,
      32.627739
     ],
     [
      35.717746,
      32.627882
     ],
     [
      35.717648,
      32.627983
     ],
     [
      35.717548,
      32.628098
     ],
     [
      35.717461,
      32.628227
     ],
     [
      35.717357,
      32.62837
     ],
     [
      35.717148,
      32.628682
     ],
     [
      35.716931,
      32.629059
     ],
     [
      35.716786,
      32.62931
     ],
     [
      35.716617,
      32.62959
     ],
     [
      35.716486,
      32.629836
     ],
     [
      35.71637,
      32.630087
     ],
     [
      35.716309,
      32.630324
     ],
     [
      35.716247,
      32.630541
     ],
     [
      35.716218,
      32.630714
     ],
     [
      35.716196,
      32.630936
     ],
     [
      35.716195,
      32.631208
     ],
     [
      35.716195,
      32.631764
     ],
     [
      35.716179,
      32.631976
     ],
     [
      35.71615,
      32.632142
     ],
     [
      35.716114,
      32.632292
     ],
     [
      35.716042,
      32.632492
     ],
     [
      35.715921,
      32.632814
     ],
     [
      35.715838,
      32.633048
     ],
     [
      35.715791,
      32.633228
     ],
     [
      35.715766,
      32.633367
     ],
     [
      35.715763,
      32.633563
     ],
     [
      35.715798,
      32.633741
     ],
     [
      35.715835,
      32.63392
     ],
     [
      35.715928,
      32.634237
     ],
     [
      35.715984,
      32.634436
     ],
     [
      35.716039,
      32.634607
     ],
     [
      35.716183,
      32.634959
     ],
     [
      35.71633,
      32.635314
     ],
     [
      35.716416,
      32.635501
     ],
     [
      35.716554,
      32.635849
     ],
     [
      35.716588,
      32.635976
     ],
     [
      35.716638,
      32.636138
     ],
     [
      35.716695,
      32.63627
     ],
     [
      35.716719,
      32.636311
     ],
     [
      35.716785,
      32.636399
     ],
     [
      35.716929,
      32.636521
     ],
     [
      35.717197,
      32.63673
     ],
     [
      35.717386,
      32.636863
     ],
     [
      35.71751,
      32.63692
     ],
     [
      35.717824,
      32.637053
     ],
     [
      35.718036,
      32.637132
     ],
     [
      35.718159,
      32.6372
     ],
     [
      35.718267,
      32.637285
     ],
     [
      35.718614,
      32.637574
     ],
     [
      35.719168,
      32.63805
     ],
     [
      35.719407,
      32.638268
     ],
     [
      35.719577,
      32.63851
     ],
     [
      35.719682,
      32.638705
     ],
     [
      35.719804,
      32.638963
     ],
     [
      35.719911,
      32.639225
     ],
     [
      35.719958,
      32.639414
     ],
     [
      35.719982,
      32.639632
     ],
     [
      35.719982,
      32.639807
     ],
     [
      35.719994,
      32.639927
     ],
     [
      35.720005,
      32.640005
     ],
     [
      35.720016,
      32.640066
     ],
     [
      35.720045,
      32.640153
     ],
     [
      35.720343,
      32.640858
     ],
     [
      35.720556,
      32.641338
     ],
     [
      35.72062,
      32.641487
     ],
     [
      35.720737,
      32.641855
     ],
     [
      35.720805,
      32.642112
     ],
     [
      35.72084,
      32.642357
     ],
     [
      35.720846,
      32.642733
     ],
     [
      35.720809,
      32.643044
     ],
     [
      35.720788,
      32.643237
     ],
     [
      35.720779,
      32.643744
     ],
     [
      35.720776,
      32.643753
     ],
     [
      35.720787,
      32.643961
     ],
     [
      35.720809,
      32.644121
     ],
     [
      35.720847,
      32.644229
     ],
     [
      35.72093,
      32.644372
     ],
     [
      35.721338,
      32.644782
     ],
     [
      35.721886,
      32.645268
     ],
     [
      35.72194,
      32.645321
     ],
     [
      35.721766,
      32.645417
     ],
     [
      35.721634,
      32.645479
     ],
     [
      35.721407,
      32.645571
     ],
     [
      35.72108,
      32.6457
     ],
     [
      35.720928,
      32.645762
     ],
     [
      35.720854,
      32.645783
     ],
     [
      35.720769,
      32.6458
     ],
     [
      35.720699,
      32.645817
     ],
     [
      35.720634,
      32.645843
     ],
     [
      35.720533,
      32.645908
     ],
     [
      35.720429,
      32.645994
     ],
     [
      35.72032,
      32.646076
     ],
     [
      35.720171,
      32.64616
     ],
     [
      35.719918,
      32.646331
     ],
     [
      35.719808,
      32.646424
     ],
     [
      35.719749,
      32.646483
     ],
     [
      35.719556,
      32.646451
     ],
     [
      35.719417,
      32.646433
     ],
     [
      35.719133,
      32.646399
     ],
     [
      35.718866,
      32.646384
     ],
     [
      35.718689,
      32.646383
     ],
     [
      35.718529,
      32.646395
     ],
     [
      35.718322,
      32.646449
     ],
     [
      35.718232,
      32.646486
     ],
     [
      35.718109,
      32.646542
     ],
     [
      35.717913,
      32.646663
     ],
     [
      35.717847,
      32.646713
     ],
     [
      35.717806,
      32.646753
     ],
     [
      35.717748,
      32.646841
     ],
     [
      35.717418,
      32.646994
     ],
     [
      35.717225,
      32.647071
     ],
     [
      35.717038,
      32.647112
     ],
     [
      35.7169,
      32.647125
     ],
     [
      35.716738,
      32.647132
     ],
     [
      35.716472,
      32.647139
     ],
     [
      35.716061,
      32.647146
     ],
     [
      35.715705,
      32.647152
     ],
     [
      35.715315,
      32.647148
     ],
     [
      35.714829,
      32.647148
     ],
     [
      35.714591,
      32.647148
     ],
     [
      35.714306,
      32.647151
     ],
     [
      35.714092,
      32.647159
     ],
     [
      35.713861,
      32.64718
     ],
     [
      35.713727,
      32.647199
     ],
     [
      35.713514,
      32.647239
     ],
     [
      35.713061,
      32.647341
     ],
     [
      35.712717,
      32.647435
     ],
     [
      35.712511,
      32.647485
     ],
     [
      35.712159,
      32.64757
     ],
     [
      35.712056,
      32.647599
     ],
     [
      35.711752,
      32.647677
     ],
     [
      35.711545,
      32.64773
     ],
     [
      35.711355,
      32.647781
     ],
     [
      35.711174,
      32.647835
     ],
     [
      35.71113,
      32.647851
     ],
     [
      35.710873,
      32.647948
     ],
     [
      35.710677,
      32.648041
     ],
     [
      35.710476,
      32.648154
     ],
     [
      35.710293,
      32.64827
     ],
     [
      35.710042,
      32.648442
     ],
     [
      35.709889,
      32.648551
     ],
     [
      35.709784,
      32.648616
     ],
     [
      35.709554,
      32.648762
     ],
     [
      35.709316,
      32.648892
     ],
     [
      35.709064,
      32.649017
     ],
     [
      35.708929,
      32.649067
     ],
     [
      35.708639,
      32.649177
     ],
     [
      35.708219,
      32.649324
     ],
     [
      35.70794,
      32.649413
     ],
     [
      35.707657,
      32.6495
     ],
     [
      35.707423,
      32.649561
     ],
     [
      35.707115,
      32.649618
     ],
     [
      35.706779,
      32.649665
     ],
     [
      35.706331,
      32.649692
     ],
     [
      35.70599,
      32.649683
     ],
     [
      35.705593,
      32.64964
     ],
     [
      35.705314,
      32.649608
     ],
     [
      35.705023,
      32.649571
     ],
     [
      35.70476,
      32.649528
     ],
     [
      35.704523,
      32.649481
     ],
     [
      35.704298,
      32.649445
     ],
     [
      35.704052,
      32.649425
     ],
     [
      35.703854,
      32.649424
     ],
     [
      35.703724,
      32.649445
     ],
     [
      35.703587,
      32.649474
     ],
     [
      35.703443,
      32.649517
     ],
     [
      35.703355,
      32.649558
     ],
     [
      35.703311,
      32.649579
     ],
     [
      35.703161,
      32.649673
     ],
     [
      35.702966,
      32.649818
     ],
     [
      35.702762,
      32.649998
     ],
     [
      35.702529,
      32.650191
     ],
     [
      35.702342,
      32.650341
     ],
     [
      35.702145,
      32.650462
     ],
     [
      35.702039,
      32.650514
     ],
     [
      35.70194,
      32.650557
     ],
     [
      35.70184,
      32.650584
     ],
     [
      35.701727,
      32.650605
     ],
     [
      35.701618,
      32.650619
     ],
     [
      35.701477,
      32.650625
     ],
     [
      35.701434,
      32.650623
     ],
     [
      35.70133,
      32.65062
     ],
     [
      35.701293,
      32.650614
     ],
     [
      35.701217,
      32.650603
     ],
     [
      35.70108,
      32.650573
     ],
     [
      35.700946,
      32.65053
     ],
     [
      35.700792,
      32.650466
     ],
     [
      35.70052,
      32.650339
     ],
     [
      35.700158,
      32.650156
     ],
     [
      35.699924,
      32.650052
     ],
     [
      35.699713,
      32.64998
     ],
     [
      35.699517,
      32.649948
     ],
     [
      35.699379,
      32.649938
     ],
     [
      35.699244,
      32.649944
     ],
     [
      35.699128,
      32.649966
     ],
     [
      35.699049,
      32.649988
     ],
     [
      35.698963,
      32.650019
     ],
     [
      35.698884,
      32.650053
     ],
     [
      35.698649,
      32.650186
     ],
     [
      35.698433,
      32.650351
     ],
     [
      35.698283,
      32.650456
     ],
     [
      35.69813,
      32.650557
     ],
     [
      35.697683,
      32.650802
     ],
     [
      35.697489,
      32.650857
     ],
     [
      35.697337,
      32.650881
     ],
     [
      35.697175,
      32.650891
     ],
     [
      35.696991,
      32.650893
     ],
     [
      35.696825,
      32.650886
     ],
     [
      35.696554,
      32.650878
     ],
     [
      35.696446,
      32.650928
     ],
     [
      35.696333,
      32.650927
     ],
     [
      35.695406,
      32.65096
     ],
     [
      35.695166,
      32.650971
     ],
     [
      35.694921,
      32.650977
     ],
     [
      35.694662,
      32.650985
     ],
     [
      35.694462,
      32.650986
     ],
     [
      35.694316,
      32.650995
     ],
     [
      35.694054,
      32.651014
     ],
     [
      35.693873,
      32.651031
     ],
     [
      35.693695,
      32.651063
     ],
     [
      35.693539,
      32.651107
     ],
     [
      35.693415,
      32.651154
     ],
     [
      35.693281,
      32.65121
     ],
     [
      35.693153,
      32.651266
     ],
     [
      35.692931,
      32.65139
     ],
     [
      35.692644,
      32.651579
     ],
     [
      35.692244,
      32.651838
     ],
     [
      35.691835,
      32.652118
     ],
     [
      35.691341,
      32.652475
     ],
     [
      35.69096,
      32.652757
     ],
     [
      35.690661,
      32.652999
     ],
     [
      35.690307,
      32.653298
     ],
     [
      35.689436,
      32.654007
     ],
     [
      35.689382,
      32.654046
     ],
     [
      35.689281,
      32.654118
     ],
     [
      35.689225,
      32.654158
     ],
     [
      35.689041,
      32.654234
     ],
     [
      35.68885,
      32.654301
     ],
     [
      35.688619,
      32.654348
     ],
     [
      35.688405,
      32.65436
     ],
     [
      35.688144,
      32.654331
     ],
     [
      35.687987,
      32.654294
     ],
     [
      35.687698,
      32.654216
     ],
     [
      35.687333,
      32.654082
     ],
     [
      35.68689,
      32.653965
     ],
     [
      35.686505,
      32.653857
     ],
     [
      35.686185,
      32.653786
     ],
     [
      35.686045,
      32.653756
     ],
     [
      35.685829,
      32.653733
     ],
     [
      35.685675,
      32.653739
     ],
     [
      35.685577,
      32.653742
     ],
     [
      35.685344,
      32.653769
     ],
     [
      35.685111,
      32.653811
     ],
     [
      35.684879,
      32.653858
     ],
     [
      35.684436,
      32.653947
     ]
    ]
   }
  },
  {
   "type": "Feature",
   "properties": {
    "kind": "hub",
    "stop_id": "irbid",
    "name_ar": "إربد",
    "name_en": "Irbid",
    "progress_km": 0.0,
    "note": "PLACEHOLDER, NOT THE REAL HUB: OpenStreetMap city-centre point for Irbid. Replace with the actual bus complex (مجمع) these lines depart from before public use.",
    "placeholder": true
   },
   "geometry": {
    "type": "Point",
    "coordinates": [
     35.849302,
     32.555609
    ]
   }
  },
  {
   "type": "Feature",
   "properties": {
    "kind": "village",
    "name_ar": "كفر يوبا",
    "progress_km": 5.0,
    "note": "Provisional: village detected along the OSM corridor; confirm the actual waiting point with drivers.",
    "stop_id": "kufr_yuba",
    "name_en": "Kufr Yuba",
    "provisional": true
   },
   "geometry": {
    "type": "Point",
    "coordinates": [
     35.80245,
     32.556875
    ]
   }
  },
  {
   "type": "Feature",
   "properties": {
    "kind": "village",
    "name_ar": "كفر عان",
    "progress_km": 7.0,
    "note": "Provisional: village detected along the OSM corridor; confirm the actual waiting point with drivers.",
    "stop_id": "kufr_an",
    "name_en": "Kufr 'An",
    "provisional": true
   },
   "geometry": {
    "type": "Point",
    "coordinates": [
     35.781984,
     32.552331
    ]
   }
  },
  {
   "type": "Feature",
   "properties": {
    "kind": "village",
    "name_ar": "كفر رحتا",
    "progress_km": 11.0,
    "note": "Provisional: village detected along the OSM corridor; confirm the actual waiting point with drivers.",
    "stop_id": "kufr_rahta",
    "name_en": "Kufr Rahta",
    "provisional": true
   },
   "geometry": {
    "type": "Point",
    "coordinates": [
     35.745526,
     32.56526
    ]
   }
  },
  {
   "type": "Feature",
   "properties": {
    "kind": "village",
    "name_ar": "الخراج",
    "progress_km": 14.0,
    "note": "Provisional: village detected along the OSM corridor; confirm the actual waiting point with drivers.",
    "stop_id": "al_kharaj",
    "name_en": "Al-Kharaj",
    "provisional": true
   },
   "geometry": {
    "type": "Point",
    "coordinates": [
     35.726054,
     32.585691
    ]
   }
  },
  {
   "type": "Feature",
   "properties": {
    "kind": "village",
    "name_ar": "صيدور",
    "progress_km": 19.0,
    "note": "Provisional: village detected along the OSM corridor; confirm the actual waiting point with drivers.",
    "stop_id": "saydour",
    "name_en": "Saydour",
    "provisional": true
   },
   "geometry": {
    "type": "Point",
    "coordinates": [
     35.706334,
     32.619428
    ]
   }
  },
  {
   "type": "Feature",
   "properties": {
    "kind": "village",
    "name_ar": "بلد الباشا",
    "progress_km": 22.0,
    "note": "Provisional: village detected along the OSM corridor; confirm the actual waiting point with drivers.",
    "stop_id": "balad_al_basha",
    "name_en": "Balad Al-Basha",
    "provisional": true
   },
   "geometry": {
    "type": "Point",
    "coordinates": [
     35.716808,
     32.629273
    ]
   }
  },
  {
   "type": "Feature",
   "properties": {
    "kind": "terminus",
    "stop_id": "umm_qais",
    "name_ar": "أم قيس",
    "name_en": "Umm Qais",
    "progress_km": 27.878,
    "note": "OSM place centre; verify the village bus stop",
    "provisional": true
   },
   "geometry": {
    "type": "Point",
    "coordinates": [
     35.68446,
     32.654033
    ]
   }
  }
 ],
 "provenance": {
  "source": "OpenStreetMap (© OpenStreetMap contributors, ODbL). Road corridor via OSRM, places via Nominatim.",
  "status": "provisional",
  "field_check_required": [
   "Irbid hub (which مجمع these lines use)",
   "road actually driven",
   "village waiting points",
   "terminus stop"
  ],
  "traced_on": "2026-09-21",
  "note": "Auto-traced field data. Not verified. Do not ship to the public as-is."
 }
}